,the_geom,School_ID,Short_Name,Address,Grade_Cat,Lat,Long,Comm_Area
0,POINT (-87.6266211792559 41.81924917367548),610590,BRONZEVILLE CLASSICAL,8 W ROOT ST,ES,41.81924917,-87.62662118,38
1,POINT (-87.64556149971644 41.907796795867235),400113,CICS - CHICAGOQUEST HS,1443 N OGDEN AVE,HS,41.9077968,-87.6455615,8
2,POINT (-87.55990690211836 41.74267138259229),400168,GREAT LAKES,8401 S SAGINAW AVE,ES,41.74267138,-87.5599069,46
3,POINT (-87.63756486350432 41.91389953306062),610033,LASALLE,1734 N ORLEANS ST,ES,41.91389953,-87.63756486,7
4,POINT (-87.73599882158203 41.92791840313385),609716,KELVYN PARK HS,4343 W WRIGHTWOOD AVE,HS,41.9279184,-87.73599882,20
5,POINT (-87.6069799087892 41.73013138496663),400150,YCCS - CHATHAM,9035 S LANGLEY AVE,HS,41.73013138,-87.60697991,44
6,POINT (-87.7240426330541 41.9939423332521),610182,SOLOMON,6206 N HAMLIN AVE,ES,41.99394233,-87.72404263,13
7,POINT (-87.7317773871337 41.860517738550094),610005,HUGHES C,4247 W 15TH ST,ES,41.86051774,-87.73177739,29
8,POINT (-87.67188730719722 41.790591287271845),609986,HENDERSON,5650 S WOLCOTT AVE,ES,41.79059129,-87.67188731,67
9,POINT (-87.68784229508248 41.87467299509577),610571,OMBUDSMAN - WEST HS,2401 W. CONGRESS PKWY,HS,41.874673,-87.6878423,28
10,POINT (-87.73119286567511 41.84560242225679),609870,CORKERY,2510 S KILDARE AVE,ES,41.84560242,-87.73119287,30
11,POINT (-87.76714284601218 41.90679057463541),610235,YOUNG ES,1434 N PARKSIDE AVE,ES,41.90679057,-87.76714285,25
12,POINT (-87.70419859112478 41.81106861004231),610170,COLUMBIA EXPLORERS,4520 S KEDZIE AVE,ES,41.81106861,-87.70419859,58
13,POINT (-87.68326359189952 41.975894300746795),609852,CHAPPELL,2135 W FOSTER AVE,ES,41.9758943,-87.68326359,4
14,POINT (-87.74009743580562 41.80757850768547),400009,GLOBAL CITIZENSHIP,4647 W 47TH ST,ES,41.80757851,-87.74009744,56
15,POINT (-87.58958949846885 41.73313231350861),610312,MCDOWELL,1419 E 89TH ST,ES,41.73313231,-87.5895895,48
16,POINT (-87.64488797547315 41.857207856770316),400134,YCCS - ADDAMS,1814 S UNION AVE,HS,41.85720786,-87.64488798,31
17,POINT (-87.73166568492086 41.74710687938422),610185,STEVENSON,8010 S KOSTNER AVE,ES,41.74710688,-87.73166568,70
18,POINT (-87.66220943342512 41.85884887593743),610013,PILSEN,1420 W 17TH ST,ES,41.85884888,-87.66220943,31
19,POINT (-87.63895772518782 41.66487335006054),610091,BROWN R,12607 S UNION AVE,ES,41.66487335,-87.63895773,53
20,POINT (-87.72204165467052 41.80306020749633),609756,CURIE HS,4959 S ARCHER AVE,HS,41.80306021,-87.72204165,57
21,POINT (-87.75332487133475 41.872885005780745),610244,CLARK HS,5101 W HARRISON ST,HS,41.87288501,-87.75332487,25
22,POINT (-87.64676673439087 41.73412547292367),610369,JACKSON M,917 W 88TH ST,ES,41.73412547,-87.64676673,71
23,POINT (-87.55648708347297 41.759748640064636),400175,CAMELOT - EXCEL SOUTH SHORE HS,7530 S SOUTH SHORE DR,HS,41.75974864,-87.55648708,43
24,POINT (-87.66866060376516 41.912357908092105),609828,BURR,1621 W WABANSIA AVE,ES,41.91235791,-87.6686606,24
25,POINT (-87.66915866998328 41.68941960633778),609908,ESMOND,1865 W MONTVALE AVE,ES,41.68941961,-87.66915867,75
26,POINT (-87.71866612901145 41.870742162716034),609954,GREGORY,3715 W POLK ST,ES,41.87074216,-87.71866613,27
27,POINT (-87.69494501175214 41.899376573212),400022,CHIARTS HS,2714 W AUGUSTA BLVD,HS,41.89937657,-87.69494501,24
28,POINT (-87.68380143063956 41.9184862785648),610138,PULASKI,2230 W MCLEAN AVE,ES,41.91848628,-87.68380143,22
29,POINT (-87.76104831560825 41.920059399819515),609679,PROSSER HS,2148 N LONG AVE,HS,41.9200594,-87.76104832,19
30,POINT (-87.66722708445168 41.85603119276117),609867,COOPER,1624 W 19TH ST,ES,41.85603119,-87.66722708,31
31,POINT (-87.574815637322 41.74827412767004),610052,MANN,8050 S CHAPPEL AVE,ES,41.74827413,-87.57481564,46
32,POINT (-87.6475771651966 41.70660285984552),610128,GARVEY,10309 S MORGAN ST,ES,41.70660286,-87.64757717,73
33,POINT (-87.7109873318466 41.79234608462285),610226,SANDOVAL,5534 S SAINT LOUIS AVE,ES,41.79234608,-87.71098733,63
34,POINT (-87.71105882217729 41.79520055536741),610543,SOLORIO HS,5400 S ST LOUIS AVE,HS,41.79520056,-87.71105882,63
35,POINT (-87.81116978484948 42.004407921975805),609899,EBINGER,7350 W PRATT AVE,ES,42.00440792,-87.81116978,9
36,POINT (-87.55714197102567 41.754365132036085),609806,BRADWELL,7736 S BURNHAM AVE,ES,41.75436513,-87.55714197,43
37,POINT (-87.70204158577978 41.86414856767653),610499,COLLINS HS,1313 S SACRAMENTO DR,HS,41.86414857,-87.70204159,29
38,POINT (-87.7104924284939 41.95089127550272),400027,CICS - IRVING PARK,3820 N SPAULDING AVE,ES,41.95089128,-87.71049243,16
39,POINT (-87.65728743906132 41.92320352237399),610059,MAYER,2250 N CLIFTON AVE,ES,41.92320352,-87.65728744,7
40,POINT (-87.6921150637715 41.78090389857652),610057,FAIRFIELD,6201 S FAIRFIELD AVE,ES,41.7809039,-87.69211506,66
41,POINT (-87.65909480291802 41.86330140903392),400091,CHICAGO TECH HS,1301 W 14TH ST,HS,41.86330141,-87.6590948,28
42,POINT (-87.7051078304837 41.88917813530736),610257,MORTON,431 N TROY ST,ES,41.88917814,-87.70510783,23
43,POINT (-87.64133454073053 41.7653349800333),610299,KING ES,644 W 71ST ST,ES,41.76533498,-87.64133454,68
44,POINT (-87.69989559043218 41.870938956577234),609722,MANLEY HS,2935 W POLK ST,HS,41.87093896,-87.69989559,27
45,POINT (-87.71060878865048 41.97150444375455),610212,ALBANY PARK,4929 N SAWYER AVE,ES,41.97150444,-87.71060879,14
46,POINT (-87.68964723523982 41.8159094866974),610174,SHIELDS,4250 S ROCKWELL ST,ES,41.81590949,-87.68964724,58
47,POINT (-87.77912305213582 41.98367169602941),609995,HITCH,5625 N MCVICKER AVE,ES,41.9836717,-87.77912305,10
48,POINT (-87.70313876271742 41.86183619185465),610274,JOHNSON,1420 S ALBANY AVE,ES,41.86183619,-87.70313876,29
49,POINT (-87.79154724940719 41.98296098703244),609734,TAFT HS,6530 W BRYN MAWR AVE,HS,41.98296099,-87.79154725,10
50,POINT (-87.65374921076256 41.70585893636921),609762,JULIAN HS,10330 S ELIZABETH ST,HS,41.70585894,-87.65374921,73
51,POINT (-87.79060442456196 41.77655627006086),610087,BLAIR,6751 W 63RD PL,ES,41.77655627,-87.79060442,64
52,POINT (-87.59165381084247 41.74824699476068),609786,AVALON PARK,8045 S KENWOOD AVE,ES,41.74824699,-87.59165381,45
53,POINT (-87.70779647482752 41.892550173948315),400069,POLARIS,620 N SAWYER AVE,ES,41.89255017,-87.70779647,23
54,POINT (-87.7324430956503 41.90690720588667),610100,WEST PARK,1425 N TRIPP AVE,ES,41.90690721,-87.7324431,23
55,POINT (-87.70207089041902 41.88731991570182),400048,LEARN - EXCEL,3021 W CARROLL AVE,ES,41.88731992,-87.70207089,27
56,POINT (-87.635512810307 41.906599990282025),609926,FRANKLIN,225 W EVERGREEN AVE,ES,41.90659999,-87.63551281,8
57,POINT (-87.5533067102828 41.66248099895514),609944,GRISSOM,12810 S ESCANABA AVE,ES,41.662481,-87.55330671,55
58,POINT (-87.58685459668835 41.79344724373491),609969,HARTE,1556 E 56TH ST,ES,41.79344724,-87.5868546,41
59,POINT (-87.64921669361146 41.758924732511545),610339,STAGG,7424 S MORGAN ST,ES,41.75892473,-87.64921669,68
60,POINT (-87.59625661667712 41.72853414286835),610124,WASHINGTON H ES,9130 S UNIVERSITY AVE,ES,41.72853414,-87.59625662,47
61,POINT (-87.62650132149453 41.738790917320316),400061,PERSPECTIVES - LEADERSHIP HS,8522 S LAFAYETTE AVE,HS,41.73879092,-87.62650132,44
62,POINT (-87.70850768195618 41.856962452056116),400049,LEGACY,3318 W OGDEN AVE,ES,41.85696245,-87.70850768,29
63,POINT (-87.7046185932162 42.0092885578366),609880,DECATUR,7030 N SACRAMENTO AVE,ES,42.00928856,-87.70461859,2
64,POINT (-87.60935721101178 41.775423844377066),610065,TILL,6543 S CHAMPLAIN AVE,ES,41.77542384,-87.60935721,42
65,POINT (-87.69386163538269 41.79993018672596),400084,ACERO - TAMAYO,5135 S CALIFORNIA AVE,ES,41.79993019,-87.69386164,63
66,POINT (-87.6926143988051 41.74536545069096),400031,CICS - WRIGHTWOOD,8130 S CALIFORNIA AVE,ES,41.74536545,-87.6926144,70
67,POINT (-87.57664295114292 41.729692361599135),610350,BLACK,9101 S EUCLID AVE,ES,41.72969236,-87.57664295,48
68,POINT (-87.6804175545629 41.86783228544098),609783,JEFFERSON HS,1100 S HAMILTON AVE,HS,41.86783229,-87.68041755,28
69,POINT (-87.79560407108086 41.931762354689276),610041,LOCKE J,2828 N OAK PARK AVE,ES,41.93176235,-87.79560407,18
70,POINT (-87.63535578864123 41.843980089901585),610217,WARD J,2701 S SHIELDS AVE,ES,41.84398009,-87.63535579,34
71,POINT (-87.70272393872024 41.88731990948972),400165,LEARN - MIDDLE,3021 W CARROLL AVE,ES,41.88731991,-87.70272394,27
72,POINT (-87.73528329703342 41.835281873633164),610385,MULTICULTURAL HS,3120 S KOSTNER AVE,HS,41.83528187,-87.7352833,30
73,POINT (-87.70734534805287 41.75374980253198),610558,GOODE HS,7651 S HOMAN AVE,HS,41.7537498,-87.70734535,70
74,POINT (-87.70733230829421 41.8899772039312),609693,WESTINGHOUSE HS,3223 W FRANKLIN BLVD,HS,41.8899772,-87.70733231,23
75,POINT (-87.56822810166985 41.73333775257231),610002,HOYNE,8905 S CRANDON AVE,ES,41.73333775,-87.5682281,48
76,POINT (-87.71423364671365 41.90450276453562),610021,CASALS,3501 W POTOMAC AVE,ES,41.90450276,-87.71423365,23
77,POINT (-87.73401972966425 41.95893849446322),609798,BELDING,4257 N TRIPP AVE,ES,41.95893849,-87.73401973,16
78,POINT (-87.74673077913604 41.89781906990939),610282,MCNAIR,4820 W WALTON ST,ES,41.89781907,-87.74673078,25
79,POINT (-87.63884270034043 41.73537939015941),610153,RYDER,8716 S WALLACE ST,ES,41.73537939,-87.6388427,71
80,POINT (-87.53757030026819 41.68813693640282),609739,WASHINGTON HS,3535 E 114TH ST,HS,41.68813694,-87.5375703,52
81,POINT (-87.69207693006294 41.82390000056352),610317,BRIGHTON PARK,3825 S WASHTENAW AVE,ES,41.8239,-87.69207693,58
82,POINT (-87.52798507715978 41.70485859136503),610586,SADLOWSKI,3930 E 105TH ST,ES,41.70485859,-87.52798508,52
83,POINT (-87.65353242018865 41.77424645083773),609791,BASS,1140 W 66TH ST,ES,41.77424645,-87.65353242,68
84,POINT (-87.6680769456238 41.883362027006235),400043,HOPE LEARNING ACADEMY,1628 W WASHINGTON,ES,41.88336203,-87.66807695,28
85,POINT (-87.81205403976112 41.97850137693768),610105,ORIOLE PARK,5424 N OKETO AVE,ES,41.97850138,-87.81205404,10
86,POINT (-87.59737971846876 41.78041190513355),400077,U OF C - WOODLAWN HS,6300 S UNIVERSITY AVE,HS,41.78041191,-87.59737972,42
87,POINT (-87.65923928942219 41.9652948171019),400141,YCCS - TRUMAN,1145 W WILSON AVE,HS,41.96529482,-87.65923929,3
88,POINT (-87.65940468444687 41.89354763866712),610529,OGDEN HS,1250 W ERIE ST,HS,41.89354764,-87.65940468,24
89,POINT (-87.69600587941665 41.84794743255508),609921,TELPOCHCALLI,2832 W 24TH BLVD,ES,41.84794743,-87.69600588,30
90,POINT (-87.8029794402888 41.988152506770845),610099,NORWOOD PARK,5900 N NINA AVE,ES,41.98815251,-87.80297944,10
91,POINT (-87.75581325275654 41.89917135566285),609975,HAY,1018 N LARAMIE AVE,ES,41.89917136,-87.75581325,25
92,POINT (-87.66919214533212 42.00268755884796),609733,SULLIVAN HS,6631 N BOSWORTH AVE,HS,42.00268756,-87.66919215,1
93,POINT (-87.62245275190287 41.78982790525835),609844,CARTER,5740 S MICHIGAN AVE,ES,41.78982791,-87.62245275,40
94,POINT (-87.66809931233531 41.73842547802802),609927,FOSTER PARK,8530 S WOOD ST,ES,41.73842548,-87.66809931,71
95,POINT (-87.7724141662811 41.96561907168503),610137,PRUSSING,4650 N MENARD AVE,ES,41.96561907,-87.77241417,15
96,POINT (-87.60503910190107 41.65366345018639),400092,CICS - BOND,13300 S LANGLEY AVE,ES,41.65366345,-87.6050391,54
97,POINT (-87.66117465983102 41.80724155809457),609964,HAMLINE,4747 S BISHOP ST,ES,41.80724156,-87.66117466,61
98,POINT (-87.74253889944016 41.88044718811468),400123,YCCS - SCHOLASTIC ACHIEVEMENT,4651 W MADISON ST,HS,41.88044719,-87.7425389,25
99,POINT (-87.60997887453667 41.74366924214572),609887,DIXON,8306 S SAINT LAWRENCE AVE,ES,41.74366924,-87.60997887,44
100,POINT (-87.66448299828377 41.89528219404516),400053,NOBLE - GOLDER HS,1454 W SUPERIOR ST,HS,41.89528219,-87.664483,24
101,POINT (-87.60743532128018 41.72848063869461),609827,BURNSIDE,650 E 91ST PL,ES,41.72848064,-87.60743532,44
102,POINT (-87.65941897615707 41.87910254299055),610177,SKINNER,1260 W ADAMS ST,ES,41.87910254,-87.65941898,28
103,POINT (-87.54427997625555 41.733324238525874),610200,THORP J,8914 S BUFFALO AVE,ES,41.73332424,-87.54427998,46
104,POINT (-87.7087078007655 41.981315282964545),609749,NORTHSIDE PREP HS,5501 N KEDZIE AVE,HS,41.98131528,-87.7087078,13
105,POINT (-87.65622866743878 41.93412629831848),609773,AGASSIZ,2851 N SEMINARY AVE,ES,41.9341263,-87.65622867,6
106,POINT (-87.67166184963617 41.78204080365567),610391,LINDBLOM HS,6130 S WOLCOTT AVE,HS,41.7820408,-87.67166185,67
107,POINT (-87.69252575096596 41.86025889971045),610131,PLAMONDON,2642 W 15TH PL,ES,41.8602589,-87.69252575,29
108,POINT (-87.63273687421437 41.75734054221515),609971,HARVARD,7525 S HARVARD,ES,41.75734054,-87.63273687,69
109,POINT (-87.59071239556964 41.75954806012057),610047,MADISON,7433 S DORCHESTER AVE,ES,41.75954806,-87.5907124,43
110,POINT (-87.72136351132596 41.95248767022156),610564,DISNEY II HS,3900 N LAWNDALE AVE,HS,41.95248767,-87.72136351,16
111,POINT (-87.69655603217372 41.97575433056618),609817,BUDLONG,2701 W FOSTER AVE,ES,41.97575433,-87.69655603,4
112,POINT (-87.58332767616835 41.760034340143314),400181,ART IN MOTION,7415 S EAST END AVE,HS,41.76003434,-87.58332768,43
113,POINT (-87.84104144264344 41.97371477761895),609874,DIRKSEN,8601 W FOSTER AVE,ES,41.97371478,-87.84104144,76
114,POINT (-87.54292760840421 41.74382852481361),610193,NEW SULLIVAN,8331 S MACKINAW AVE,ES,41.74382852,-87.54292761,46
115,POINT (-87.75752152783723 41.92218115668631),400159,CHRISTOPHER HOUSE,5235 W BELDEN AVE,ES,41.92218116,-87.75752153,19
116,POINT (-87.54461359768162 41.65455814916713),609856,CLAY,13231 S BURLEY AVE,ES,41.65455815,-87.5446136,55
117,POINT (-87.63538476562533 41.901575169944884),609680,PAYTON HS,1034 N WELLS ST,HS,41.90157517,-87.63538477,8
118,POINT (-87.67776098071519 41.90705300511751),610229,PRITZKER,2009 W SCHILLER ST,ES,41.90705301,-87.67776098,24
119,POINT (-87.7195408326251 41.76678528200229),610006,HURLEY,3849 W 69TH PL,ES,41.76678528,-87.71954083,65
120,POINT (-87.66385296310308 41.96230777254513),610355,COURTENAY,4420 N BEACON ST,ES,41.96230777,-87.66385296,3
121,POINT (-87.61584209880387 41.77416954865603),400129,YCCS - PROGRESSIVE LEADERSHIP,6620 S DR MARTIN LUTHER KING JR DR,HS,41.77416955,-87.6158421,69
122,POINT (-87.65230159447606 41.858064777189085),610015,JUNGMAN,1746 S MILLER ST,ES,41.85806478,-87.65230159,31
123,POINT (-87.75044473104991 41.884876398496694),610183,SPENCER,214 N LAVERGNE AVE,ES,41.8848764,-87.75044473,25
124,POINT (-87.67369603171086 41.90291445732429),610520,LASALLE II,1148 N HONORE ST,ES,41.90291446,-87.67369603,24
125,POINT (-87.61979634571998 41.823879968183725),609727,PHILLIPS HS,244 E PERSHING RD,HS,41.82387997,-87.61979635,35
126,POINT (-87.68854925524502 41.78431328156345),610077,MORRILL,6011 S ROCKWELL ST,ES,41.78431328,-87.68854926,66
127,POINT (-87.64041364557241 41.71118362303717),609917,FERNWOOD,10041 S UNION AVE,ES,41.71118362,-87.64041365,73
128,POINT (-87.62633828219089 41.88274025791457),400098,NOBLE - MUCHIN HS,1 N STATE ST,HS,41.88274026,-87.62633828,32
129,POINT (-87.73067837613658 41.95046050624062),610515,DISNEY II ES,3815 N KEDVALE AVE,ES,41.95046051,-87.73067838,16
130,POINT (-87.58072902766376 41.73922635527136),609833,CALDWELL,8546 S CREGIER AVE,ES,41.73922636,-87.58072903,45
131,POINT (-87.67193897620137 42.021090558015246),609933,GALE,1631 W JONQUIL TER,ES,42.02109056,-87.67193898,1
132,POINT (-87.60492543043776 41.80417379176833),610143,REAVIS,834 E 50TH ST,ES,41.80417379,-87.60492543,39
133,POINT (-87.6889539419372 41.791012839006896),609709,GAGE PARK HS,5630 S ROCKWELL ST,HS,41.79101284,-87.68895394,63
134,POINT (-87.69694138617123 41.91250548390753),610076,MOOS,1711 N CALIFORNIA AVE,ES,41.91250548,-87.69694139,24
135,POINT (-87.6954300138009 41.854664656297814),400135,YCCS - LATINO YOUTH,2001 S CALIFORNIA AVE,HS,41.85466466,-87.69543001,30
136,POINT (-87.6206234362634 41.718372346369094),609710,HARLAN HS,9652 S MICHIGAN AVE,HS,41.71837235,-87.62062344,49
137,POINT (-87.64456122230816 41.941636554885626),610094,NETTELHORST,3252 N BROADWAY ST,ES,41.94163655,-87.64456122,6
138,POINT (-87.69095743847903 41.76498802988509),400176,CAMELOT - EXCEL SOUTHWEST HS,7050 S WASHTENAW AVE,HS,41.76498803,-87.69095744,66
139,POINT (-87.68193804931478 41.89956577566966),609863,COLUMBUS,1003 N LEAVITT ST,ES,41.89956578,-87.68193805,24
140,POINT (-87.6340858560291 41.77077979594717),610112,PARKER,6800 S STEWART AVE,ES,41.7707798,-87.63408586,68
141,POINT (-87.70523452592855 41.87724835300852),400011,LOCKE A,3141 W JACKSON BLVD,ES,41.87724835,-87.70523453,27
142,POINT (-87.63016447884766 41.725609216477125),609895,TURNER-DREW,9300 S PRINCETON AVE,ES,41.72560922,-87.63016448,49
143,POINT (-87.6913325114168 41.96436540416368),610220,WATERS,4540 N CAMPBELL AVE,ES,41.9643654,-87.69133251,4
144,POINT (-87.69026083875755 41.79404805137407),610249,TALMAN,5450 S TALMAN AVE,ES,41.79404805,-87.69026084,63
145,POINT (-87.6338063309479 41.84995831625672),609959,HAINES,247 W 23RD PL,ES,41.84995832,-87.63380633,34
146,POINT (-87.71165422585784 41.869328077274616),400118,NOBLE - DRW HS,931 S HOMAN AVE,HS,41.86932808,-87.71165423,29
147,POINT (-87.79866892055927 41.94911438709329),609810,BRIDGE,3800 N NEW ENGLAND AVE,ES,41.94911439,-87.79866892,17
148,POINT (-87.67149236961689 41.829669281398196),609952,GREENE,3525 S HONORE ST,ES,41.82966928,-87.67149237,59
149,POINT (-87.71689166479725 41.91761651455697),609930,FUNSTON,2010 N CENTRAL PARK AVE,ES,41.91761651,-87.71689166,22
150,POINT (-87.6952593685326 41.866435252161885),609851,CHALMERS,2745 W ROOSEVELT RD,ES,41.86643525,-87.69525937,29
151,POINT (-87.5947520720136 41.792347880978134),610142,RAY,5631 S KIMBARK AVE,ES,41.79234788,-87.59475207,41
152,POINT (-87.5879276414851 41.74317942055832),400023,CICS - AVALON/SOUTH SHORE,1501 E 83RD PL,ES,41.74317942,-87.58792764,45
153,POINT (-87.65716920536808 41.78468086134213),609869,LANGFORD,6010 S THROOP ST,ES,41.78468086,-87.65716921,67
154,POINT (-87.67819525963057 41.87880880875971),400097,NOBLE - BULLS HS,2040 W ADAMS ST,HS,41.87880881,-87.67819526,28
155,POINT (-87.69702979922428 41.77388108023035),610053,MARQUETTE,6550 S RICHMOND ST,ES,41.77388108,-87.6970298,66
156,POINT (-87.5732675156717 41.73717393436812),609674,CHICAGO VOCATIONAL HS,2100 E 87TH ST,HS,41.73717393,-87.57326752,45
157,POINT (-87.72554564271763 41.84008042725132),610227,WHITNEY,2815 S KOMENSKY AVE,ES,41.84008043,-87.72554564,30
158,POINT (-87.7125825776671 41.98155713878019),610127,PETERSON,5510 N CHRISTIANA AVE,ES,41.98155714,-87.71258258,13
159,POINT (-87.6216526075729 41.68541840046582),609900,CURTIS,32 E 115TH ST,ES,41.6854184,-87.62165261,49
160,POINT (-87.69918700902616 41.88294992462369),610251,CATHER,2908 W WASHINGTON BLVD,ES,41.88294992,-87.69918701,27
161,POINT (-87.72888429293121 41.77530538740298),610291,LEE,6448 S TRIPP AVE,ES,41.77530539,-87.72888429,65
162,POINT (-87.64173118628389 41.75137711262295),400130,YCCS - YOUTH DEVELOPMENT,7836 S UNION AVE,HS,41.75137711,-87.64173119,71
163,POINT (-87.66936564960906 41.749339161592225),609805,JOPLIN,7931 S HONORE ST,ES,41.74933916,-87.66936565,71
164,POINT (-87.55248342628983 41.71658801500329),610054,MARSH,9822 S EXCHANGE AVE,ES,41.71658802,-87.55248343,51
165,POINT (-87.7915444826915 41.79503096523413),609832,BYRNE,5329 S OAK PARK AVE,ES,41.79503097,-87.79154448,56
166,POINT (-87.7129567867987 41.86296002483492),610034,LAWNDALE,3500 W DOUGLAS BLVD,ES,41.86296002,-87.71295679,29
167,POINT (-87.61721417905214 41.77990049437767),610263,DULLES,6311 S CALUMET AVE,ES,41.77990049,-87.61721418,69
168,POINT (-87.70141739135633 41.887317491101996),400151,LEARN - 7,3021 W CARROLL AVE,ES,41.88731749,-87.70141739,27
169,POINT (-87.63366447727047 41.81578775166289),609987,HENDRICKS,4316 S PRINCETON AVE,ES,41.81578775,-87.63366448,37
170,POINT (-87.6579124923935 41.975816530419394),609945,GOUDY,5120 N WINTHROP AVE,ES,41.97581653,-87.65791249,3
171,POINT (-87.64265157842047 41.79564568383013),609885,DEWEY,5415 S UNION AVE,ES,41.79564568,-87.64265158,61
172,POINT (-87.65336555308117 41.871254824726755),610009,GALILEO,820 S CARPENTER ST,ES,41.87125482,-87.65336555,28
173,POINT (-87.60416374544157 41.76525228180626),400052,NOBLE - COMER,7131 SOUTH CHICAGO AVE,HS,41.76525228,-87.60416375,69
174,POINT (-87.62649482097181 41.73752473116481),400062,PERSPECTIVES - TECH HS,8522 S LAFAYETTE AVE,HS,41.73752473,-87.62649482,44
175,POINT (-87.72724437841005 41.86697962767337),610503,FRAZIER PROSPECTIVE,4027 W GRENSHAW ST,ES,41.86697963,-87.72724438,29
176,POINT (-87.72238621543494 41.9829725220501),609744,NORTHSIDE LEARNING HS,3730 W BRYN MAWR AVE,HS,41.98297252,-87.72238622,13
177,POINT (-87.55755003384358 41.734626720502284),610323,BOWEN HS,2710 E 89TH ST,HS,41.73462672,-87.55755003,46
178,POINT (-87.76151477060625 41.92395525810637),610068,HANSON PARK,5411 W FULLERTON AVE,ES,41.92395526,-87.76151477,19
179,POINT (-87.62371943749262 41.72533227933453),609939,GILLESPIE,9301 S STATE ST,ES,41.72533228,-87.62371944,49
180,POINT (-87.68989562475376 41.900343635237874),400114,ACERO - SANTIAGO,2510 W CORTEZ ST,ES,41.90034364,-87.68989562,24
181,POINT (-87.67486500006086 41.77457107363911),610108,OTOOLE,6550 S SEELEY AVE,ES,41.77457107,-87.674865,67
182,POINT (-87.7093036657653 41.97150609733164),609794,EDISON,4929 N SAWYER AVE,ES,41.9715061,-87.70930367,14
183,POINT (-87.59334040532273 41.798535485155355),610090,MURRAY,5335 S KENWOOD AVE,ES,41.79853549,-87.59334041,41
184,POINT (-87.55051275981425 41.753117141805525),610572,CAMELOT - SAFE ES,7530 S SOUTH SHORE DR,ES,41.75311714,-87.55051276,43
185,POINT (-87.61154559300773 41.76647654327145),610115,PARK MANOR,7037 S RHODES AVE,ES,41.76647654,-87.61154559,69
186,POINT (-87.71580443149543 41.87574412344961),609907,ERICSON,3600 W 5TH AVE,ES,41.87574412,-87.71580443,27
187,POINT (-87.72107064650443 41.85836974400631),400044,KIPP - ASCEND,1616 S AVERS AVE,ES,41.85836974,-87.72107065,29
188,POINT (-87.69463865990117 41.81872906388031),609715,KELLY HS,4136 S CALIFORNIA AVE,HS,41.81872906,-87.69463866,58
189,POINT (-87.66872222930542 41.864365482893085),609750,SIMPSON HS,1321 S PAULINA ST,HS,41.86436548,-87.66872223,28
190,POINT (-87.6761109297936 41.86581741364269),400057,NOBLE - UIC HS,1231 S DAMEN AVE,HS,41.86581741,-87.67611093,28
191,POINT (-87.57849166953399 41.74628657066813),400139,YCCS - SULLIVAN,8164 S SOUTH CHICAGO AVE,HS,41.74628657,-87.57849167,45
192,POINT (-87.6687720115164 41.81033324092604),610167,SEWARD,4600 S HERMITAGE AVE,ES,41.81033324,-87.66877201,61
193,POINT (-87.59951563219373 41.653702116236595),609845,CARVER G,901 E 133RD PL,ES,41.65370212,-87.59951563,54
194,POINT (-87.77684656597603 41.94305449108391),610340,CHICAGO ACADEMY HS,3400 N AUSTIN AVE,HS,41.94305449,-87.77684657,17
195,POINT (-87.71331750070007 41.911938079740125),610192,STOWE,3444 W WABANSIA AVE,ES,41.91193808,-87.7133175,23
196,POINT (-87.71247015060501 41.85266348848779),609873,CROWN,2128 S SAINT LOUIS AVE,ES,41.85266349,-87.71247015,29
197,POINT (-87.68601824432604 41.9495297990607),609799,BELL,3730 N OAKLEY AVE,ES,41.9495298,-87.68601824,5
198,POINT (-87.63952072118778 41.72362690608979),610027,KIPLING,9351 S LOWE AVE,ES,41.72362691,-87.63952072,73
199,POINT (-87.63511669834391 41.77836949913591),400106,NOBLE - JOHNSON HS,6350 S STEWART AVE,HS,41.7783695,-87.6351167,68
200,POINT (-87.7052063218969 41.93943320993381),610568,PATHWAYS - AVONDALE HS,3100 W BELMONT AVE,HS,41.93943321,-87.70520632,21
201,POINT (-87.72238554791986 41.85837242000977),610123,PENN,1616 S AVERS AVE,ES,41.85837242,-87.72238555,29
202,POINT (-87.74661383937644 41.891816142769315),400146,KIPP - ACADEMY,4818 W OHIO ST,ES,41.89181614,-87.74661384,25
203,POINT (-87.6403407498438 41.83959485632559),609979,HEALY,3010 S PARNELL AVE,ES,41.83959486,-87.64034075,60
204,POINT (-87.62502997955576 41.80611759760932),610380,WILLIAMS HS,4934 S WABASH AVE,HS,41.8061176,-87.62502998,38
205,POINT (-87.64974916516269 41.95998415548237),610242,BRENNEMANN,4251 N CLARENDON AVE,ES,41.95998416,-87.64974917,3
206,POINT (-87.74595144443238 41.991169246498906),610155,SAUGANASH,6040 N KILPATRICK AVE,ES,41.99116925,-87.74595144,12
207,POINT (-87.77763129473917 41.94857131228708),610201,THORP O,6024 W WARWICK AVE,ES,41.94857131,-87.77763129,17
208,POINT (-87.6347505165276 41.74886822530017),610300,WESTCOTT,409 W 80TH ST,ES,41.74886823,-87.63475052,44
209,POINT (-87.60017682327393 41.764195865105),610146,REVERE,1010 E 72ND ST,ES,41.76419587,-87.60017682,69
210,POINT (-87.6577088771243 41.94227548886953),609974,HAWTHORNE,3319 N CLIFTON AVE,ES,41.94227549,-87.65770888,6
211,POINT (-87.75795257359309 41.92160395732478),609922,BELMONT-CRAGIN,5252 W PALMER ST,ES,41.92160396,-87.75795257,19
212,POINT (-87.82929570100909 41.94800702810086),609836,CANTY,3740 N PANAMA AVE,ES,41.94800703,-87.8292957,17
213,POINT (-87.62713680544573 41.80913475766682),610237,BEETHOVEN,25 W 47TH ST,ES,41.80913476,-87.62713681,38
214,POINT (-87.61432001021043 41.65373298145686),610364,DUBOIS,330 E 133RD ST,ES,41.65373298,-87.61432001,54
215,POINT (-87.69624330090758 41.85271913493378),609966,HAMMOND,2819 W 21ST PL,ES,41.85271913,-87.6962433,30
216,POINT (-87.64600935975373 41.91826831157405),609738,LINCOLN PARK HS,2001 N ORCHARD ST,HS,41.91826831,-87.64600936,7
217,POINT (-87.7399202337779 41.77107907272639),610544,AZUELA,4707 W MARQUETTE RD,ES,41.77107907,-87.73992023,65
218,POINT (-87.64765248686282 41.70195211714686),610086,MOUNT VERNON,10540 S MORGAN ST,ES,41.70195212,-87.64765249,73
219,POINT (-87.65756105861047 41.720246423748904),400026,CICS - LOOMIS,9535 S LOOMIS ST,ES,41.72024642,-87.65756106,73
220,POINT (-87.67092712871728 41.754193850575675),609790,BARTON,7650 S WOLCOTT AVE,ES,41.75419385,-87.67092713,71
221,POINT (-87.70630009266641 41.84226716605956),610063,MCCORMICK,2712 S SAWYER AVE,ES,41.84226717,-87.70630009,30
222,POINT (-87.73046684944869 41.809170790028666),400085,ACERO - GARCIA HS,4248 W 47TH ST,HS,41.80917079,-87.73046685,57
223,POINT (-87.64089202543342 41.77645281066968),610019,KERSHAW,6450 S LOWE AVE,ES,41.77645281,-87.64089203,68
224,POINT (-87.66423334339181 41.8786025331421),609755,YOUNG HS,211 S LAFLIN ST,HS,41.87860253,-87.66423334,28
225,POINT (-87.65247334562713 41.96554746165571),610394,UPLIFT HS,900 W WILSON AVE,HS,41.96554746,-87.65247335,3
226,POINT (-87.69101262673288 41.946644575017245),609720,LANE TECH HS,2501 W ADDISON ST,HS,41.94664458,-87.69101263,5
227,POINT (-87.64484149476914 41.90510911968544),610534,SKINNER NORTH,640 W SCOTT ST,ES,41.90510912,-87.64484149,8
228,POINT (-87.79310825534182 41.993790349803824),610104,ONAHAN,6634 W RAVEN ST,ES,41.99379035,-87.79310826,10
229,POINT (-87.72460522408866 41.97163400199348),610209,VOLTA,4950 N AVERS AVE,ES,41.971634,-87.72460522,14
230,POINT (-87.63996733090828 41.793556268015074),400163,KIPP - BLOOM,5515 S LOWE AVE,ES,41.79355627,-87.63996733,68
231,POINT (-87.60466040817992 41.70755761761424),609978,SMITH,744 E 103RD ST,ES,41.70755762,-87.60466041,50
232,POINT (-87.63227938229059 41.7908002441225),610173,SHERWOOD,245 W 57TH ST,ES,41.79080024,-87.63227938,68
233,POINT (-87.7173534236252 41.74507775213447),609879,DAWES,3810 W 81ST PL,ES,41.74507775,-87.71735342,70
234,POINT (-87.65829608025545 41.98913906100289),610196,SWIFT,5900 N WINTHROP AVE,ES,41.98913906,-87.65829608,77
235,POINT (-87.63541036887602 41.745781231018704),609692,SIMEON HS,8147 S VINCENNES AVE,HS,41.74578123,-87.63541037,44
236,POINT (-87.59079500924986 41.783368323496106),609837,CARNEGIE,1414 E 61ST PL,ES,41.78336832,-87.59079501,42
237,POINT (-87.71036161378386 41.97033523524002),609994,HIBBARD,3244 W AINSLIE ST,ES,41.97033524,-87.71036161,14
238,POINT (-87.68440568153046 42.016475882493204),400121,ACERO - DE LA CRUZ,7416 N RIDGE BLVD,ES,42.01647588,-87.68440568,2
239,POINT (-87.66809130690706 41.88390675594886),610308,RUDOLPH,1628 W WASHINGTON BLVD,ES,41.88390676,-87.66809131,28
240,POINT (-87.77041752737658 41.86781256832871),609795,CLARK ES,1045 S MONITOR AVE,ES,41.86781257,-87.77041753,25
241,POINT (-87.70224105256052 41.87381494751907),610271,JENSEN,3030 W HARRISON ST,ES,41.87381495,-87.70224105,27
242,POINT (-87.59693188177575 41.7169888724496),610178,SCHMID,9755 S GREENWOOD AVE,ES,41.71698887,-87.59693188,50
243,POINT (-87.67413840184173 41.87631672812639),400142,YCCS - VIRTUAL HS,1900 W VAN BUREN ST,HS,41.87631673,-87.6741384,28
244,POINT (-87.77818680274711 41.94305592014629),610248,CHICAGO ACADEMY ES,3400 N AUSTIN AVE,ES,41.94305592,-87.7781868,17
245,POINT (-87.75542435392026 41.88826258108702),400178,MOVING EVEREST,416 N. LARAMIE AVE,ES,41.88826258,-87.75542435,25
246,POINT (-87.67372272471344 41.89240461212604),610197,TALCOTT,1840 W OHIO ST,ES,41.89240461,-87.67372272,24
247,POINT (-87.76993751641062 41.957598988549314),610390,RICKOVER MILITARY HS,5700 W BERTEAU AVE,HS,41.95759899,-87.76993752,15
248,POINT (-87.72466123134852 41.878798932740885),610293,MELODY,3937 W WILCOX ST,ES,41.87879893,-87.72466123,26
249,POINT (-87.78269957085672 41.917598138290266),609818,BURBANK,2035 N MOBILE AVE,ES,41.91759814,-87.78269957,19
250,POINT (-87.62678146981605 41.83207205853407),400145,YCCS - YOUTH CONNECTION,3424 S STATE ST,HS,41.83207206,-87.62678147,35
251,POINT (-87.67754136786813 41.80841254338603),610563,BACK OF THE YARDS HS,2111 W 47TH ST,HS,41.80841254,-87.67754137,61
252,POINT (-87.6762882521466 41.96784686777537),610070,MCPHERSON,4728 N WOLCOTT AVE,ES,41.96784687,-87.67628825,4
253,POINT (-87.63685077269177 41.77024998310753),610592,ENGLEWOOD STEM HS,6835 S NORMAL BLVD,HS,41.77024998,-87.63685077,68
254,POINT (-87.77834486153144 42.00749067018199),610230,WILDWOOD,6950 N HIAWATHA AVE,ES,42.00749067,-87.77834486,12
255,POINT (-87.69718539374006 42.015265046406135),610147,ROGERS,7345 N WASHTENAW AVE,ES,42.01526505,-87.69718539,2
256,POINT (-87.60121587665121 41.70665961719825),609761,CORLISS HS,821 E 103RD ST,HS,41.70665962,-87.60121588,50
257,POINT (-87.77674853945707 41.92168749543514),400030,CICS - WEST BELDEN,2245 N MCVICKER AVE,ES,41.9216875,-87.77674854,19
258,POINT (-87.70870563224456 41.848559874656516),609704,FARRAGUT HS,2345 S CHRISTIANA AVE,HS,41.84855987,-87.70870563,30
259,POINT (-87.68106119769817 41.777510508068595),610347,CLAREMONT,2300 W 64TH ST,ES,41.77751051,-87.6810612,66
260,POINT (-87.76333693233927 41.87276042857196),400068,PLATO,5545 W HARRISON ST,ES,41.87276043,-87.76333693,25
261,POINT (-87.7485150135082 41.91881409631146),610040,LLOYD,2103 N LAMON AVE,ES,41.9188141,-87.74851501,19
262,POINT (-87.64808617419781 41.85483574753875),610216,WALSH,2015 S PEORIA ST,ES,41.85483575,-87.64808617,31
263,POINT (-87.68056201257482 41.93579455641457),610524,ALCOTT HS,2957 N HOYNE AVE,HS,41.93579456,-87.68056201,5
264,POINT (-87.66908929640572 41.77512408382618),609711,HARPER HS,6520 S WOOD ST,HS,41.77512408,-87.6690893,67
265,POINT (-87.65098672781265 41.73444162333087),400117,NOBLE - HANSBERRY HS,8748 S ABERDEEN ST,HS,41.73444162,-87.65098673,71
266,POINT (-87.72109744629034 41.749375610128205),609698,BOGAN HS,3939 W 79TH ST,HS,41.74937561,-87.72109745,70
267,POINT (-87.75939838513519 41.893612211402456),610000,HOWE,720 N LOREL AVE,ES,41.89361221,-87.75939839,25
268,POINT (-87.68560700306018 41.80165862497381),609855,CHRISTOPHER,5042 S ARTESIAN AVE,ES,41.80165862,-87.685607,63
269,POINT (-87.55620144123627 41.73462237198718),400157,NOBLE - BAKER HS,2710 E 89TH ST,HS,41.73462237,-87.55620144,46
270,POINT (-87.65977458979333 41.74523702220766),609864,COOK,8150 S BISHOP ST,ES,41.74523702,-87.65977459,71
271,POINT (-87.72709565848761 41.93729828527434),400013,ASPIRA - EARLY COLLEGE HS,3986 W BARRY AVE,HS,41.93729829,-87.72709566,21
272,POINT (-87.67449459892651 41.91591380191579),609896,DRUMMOND,1845 W CORTLAND ST,ES,41.9159138,-87.6744946,22
273,POINT (-87.62929656938485 41.89997648989646),610101,OGDEN ES,24 W WALTON ST,ES,41.89997649,-87.62929657,8
274,POINT (-87.77948259997899 41.789964634528374),610026,KINZIE,5625 S MOBILE AVE,ES,41.78996463,-87.7794826,56
275,POINT (-87.69629419836055 41.930966096627884),609809,BRENTANO,2723 N FAIRFIELD AVE,ES,41.9309661,-87.6962942,22
276,POINT (-87.72752437440197 41.86991585857576),610221,WEBSTER,4055 W ARTHINGTON ST,ES,41.86991586,-87.72752437,26
277,POINT (-87.69936418519197 41.8130073702618),609958,GUNSAULUS,4420 S SACRAMENTO AVE,ES,41.81300737,-87.69936419,58
278,POINT (-87.5567892487748 41.76033180038522),610281,POWELL,7511 S SOUTH SHORE DR,ES,41.7603318,-87.55678925,43
279,POINT (-87.65157334214143 41.94900330098147),610078,INTER-AMERICAN,851 W WAVELAND AVE,ES,41.9490033,-87.65157334,6
280,POINT (-87.58218173784377 41.72610745557593),610316,EARHART,1710 E 93RD ST,ES,41.72610746,-87.58218174,48
281,POINT (-87.68031496656168 41.879869820873424),610252,DETT,2131 W MONROE ST,ES,41.87986982,-87.68031497,28
282,POINT (-87.7352779616072 41.83616881871939),610384,INFINITY HS,3120 S KOSTNER AVE,HS,41.83616882,-87.73527796,30
283,POINT (-87.6759655135522 41.76061412751453),609941,RANDOLPH,7316 S HOYNE AVE,ES,41.76061413,-87.67596551,67
284,POINT (-87.64599025178921 41.913947217925134),610095,NEWBERRY,700 W WILLOW ST,ES,41.91394722,-87.64599025,7
285,POINT (-87.70406006782767 41.73523902268549),610557,PATHWAYS - ASHBURN HS,3284 W 87TH ST,HS,41.73523902,-87.70406007,70
286,POINT (-87.70574908776544 41.74284992213334),610109,OWEN,8247 S CHRISTIANA AVE,ES,41.74284992,-87.70574909,70
287,POINT (-87.67339165432213 41.85048088695514),610228,WHITTIER,1900 W 23RD ST,ES,41.85048089,-87.67339165,31
288,POINT (-87.58295438277372 41.768555190301285),610116,PARKSIDE,6938 S EAST END AVE,ES,41.76855519,-87.58295438,43
289,POINT (-87.6038738616326 41.813675452911355),609751,KING HS,4445 S DREXEL BLVD,HS,41.81367545,-87.60387386,39
290,POINT (-87.71804676766163 41.89536225911062),400056,NOBLE - ROWE CLARK HS,3645 W CHICAGO AVE,HS,41.89536226,-87.71804677,23
291,POINT (-87.70898711116945 41.858563554204274),400058,NLCP - CHRISTIANA HS,1615 S. CHRISTIANA AVE.,HS,41.85856355,-87.70898711,29
292,POINT (-87.7148186155918 41.964827884615524),609728,ROOSEVELT HS,3436 W WILSON AVE,HS,41.96482788,-87.71481862,14
293,POINT (-87.62855344657889 41.84404331289961),609894,DRAKE,2710 S DEARBORN ST,ES,41.84404331,-87.62855345,35
294,POINT (-87.59878626838409 41.811182867317584),400076,U OF C - NKO,1119 E 46TH ST,ES,41.81118287,-87.59878627,39
295,POINT (-87.67594676755326 41.759852429202134),609745,SOUTHSIDE HS,7342 S HOYNE AVE,HS,41.75985243,-87.67594677,67
296,POINT (-87.76607165818345 41.97979005572081),609912,FARNSWORTH,5414 N LINDER AVE,ES,41.97979006,-87.76607166,11
297,POINT (-87.61362864697801 41.83111753164771),400105,URBAN PREP - BRONZEVILLE HS,521 E 35TH ST,HS,41.83111753,-87.61362865,35
298,POINT (-87.70715072817114 41.96172105674063),610354,NORTH RIVER,4416 N TROY ST,ES,41.96172106,-87.70715073,14
299,POINT (-87.65065315648945 41.83385390963363),609777,ARMOUR,950 W 33RD PL,ES,41.83385391,-87.65065316,60
300,POINT (-87.71869663581879 41.83706515201162),609938,GARY,3740 W 31ST ST,ES,41.83706515,-87.71869664,30
301,POINT (-87.72650426433654 41.99024501216148),400034,CICS - NORTHTOWN HS,3900 W PETERSON AVE,HS,41.99024501,-87.72650426,13
302,POINT (-87.6064191733992 41.70263000159789),610132,POE,10538 S LANGLEY AVE,ES,41.70263,-87.60641917,50
303,POINT (-87.73561211047468 41.9463645435742),609729,SCHURZ HS,3601 N MILWAUKEE AVE,HS,41.94636454,-87.73561211,16
304,POINT (-87.77717419891077 41.934192162778004),610046,LYON,2941 N MCVICKER AVE,ES,41.93419216,-87.7771742,19
305,POINT (-87.76191637272515 41.885993287294944),610518,AUSTIN CCA HS,231 N PINE AVE,HS,41.88599329,-87.76191637,25
306,POINT (-87.62500446841632 41.80520417115968),610381,BRONZEVILLE HS,4934 S WABASH AVE,HS,41.80520417,-87.62500447,38
307,POINT (-87.70804087648982 41.93397019626955),610325,AVONDALE-LOGANDALE,3212 W GEORGE ST,ES,41.9339702,-87.70804088,21
308,POINT (-87.76466317335583 41.960363796686735),609766,VAUGHN HS,4355 N LINDER AVE,HS,41.9603638,-87.76466317,15
309,POINT (-87.66542623590556 41.89180608207174),610107,OTIS,525 N ARMOUR ST,ES,41.89180608,-87.66542624,24
310,POINT (-87.64745284244795 41.78494238058913),609793,NICHOLSON,6006 S PEORIA ST,ES,41.78494238,-87.64745284,68
311,POINT (-87.69727833699844 41.697170334539365),610084,KELLER,3020 W 108TH ST,ES,41.69717033,-87.69727834,74
312,POINT (-87.7106794800681 41.86727271466093),400046,LEARN - BUTLER,1132 S HOMAN AVE,ES,41.86727271,-87.71067948,29
313,POINT (-87.60850078078482 41.827726081741545),400075,U OF C - DONOGHUE,707 E 37TH ST,ES,41.82772608,-87.60850078,36
314,POINT (-87.65548116090044 41.72967267491388),609924,FORT DEARBORN,9025 S THROOP ST,ES,41.72967267,-87.65548116,73
315,POINT (-87.64608274403552 41.956816131048946),610363,DISNEY,4140 N MARINE DR,ES,41.95681613,-87.64608274,3
316,POINT (-87.64804432347509 41.716193296392845),610366,WACKER,9746 S MORGAN ST,ES,41.7161933,-87.64804432,73
317,POINT (-87.6684358817945 41.7975802708172),609929,FULTON,5300 S HERMITAGE AVE,ES,41.79758027,-87.66843588,61
318,POINT (-87.664072468525 41.907797179076844),400096,ROWE,1424 N CLEAVER ST,ES,41.90779718,-87.66407247,24
319,POINT (-87.61763743459437 41.84022557248816),609676,DUNBAR HS,3000 S KING DR,HS,41.84022557,-87.61763743,35
320,POINT (-87.66998540066854 42.0096638555208),609918,FIELD,7019 N ASHLAND AVE,ES,42.00966386,-87.6699854,1
321,POINT (-87.63363213618669 41.68665997028377),609808,HALEY,11411 S EGGLESTON AVE,ES,41.68665997,-87.63363214,49
322,POINT (-87.63727734721517 41.77272749766362),610290,MAYS,6656 S NORMAL BLVD,ES,41.7727275,-87.63727735,68
323,POINT (-87.81313152527646 41.942551670327916),609884,DEVER,3436 N OSCEOLA AVE,ES,41.94255167,-87.81313153,17
324,POINT (-87.66262778223674 41.90019052118109),400051,NOBLE - NOBLE HS,1010 N NOBLE ST,HS,41.90019052,-87.66262778,24
325,POINT (-87.68913886416301 41.79771437940249),610096,NIGHTINGALE,5250 S ROCKWELL ST,ES,41.79771438,-87.68913886,63
326,POINT (-87.61223910523852 41.80120416674226),610587,DYETT ARTS HS,555 E 51ST ST,HS,41.80120417,-87.61223911,40
327,POINT (-87.693075322621 41.77099171900436),400115,CATALYST - MARIA,6727 S CALIFORNIA AVE,ES,41.77099172,-87.69307532,66
328,POINT (-87.69178650207834 41.76814276463553),610067,MCKAY,6901 S FAIRFIELD AVE,ES,41.76814276,-87.6917865,66
329,POINT (-87.62126075300296 41.78412639760065),400029,CICS - WASHINGTON PARK,110 E 61ST ST,ES,41.7841264,-87.62126075,40
330,POINT (-87.71879729303554 41.89323561092149),610133,WARD L,646 N LAWNDALE AVE,ES,41.89323561,-87.71879729,23
331,POINT (-87.70809202043938 41.879713591437415),610055,FARADAY,3250 W MONROE ST,ES,41.87971359,-87.70809202,27
332,POINT (-87.63435669191709 41.78149781662671),400086,URBAN PREP - ENGLEWOOD HS,6201 S STEWART AVE,HS,41.78149782,-87.63435669,68
333,POINT (-87.71165364056992 41.82437732801645),610353,CALMECA,3456 W 38TH ST,ES,41.82437733,-87.71165364,58
334,POINT (-87.77657870907606 41.780191732055165),609960,HALE,6140 S MELVINA AVE,ES,41.78019173,-87.77657871,64
335,POINT (-87.77012725796692 41.93493062290806),610539,CAMRAS,3000 N MANGO AVE,ES,41.93493062,-87.77012726,19
336,POINT (-87.70249639568893 41.98758868268868),609724,MATHER HS,5835 N LINCOLN AVE,HS,41.98758868,-87.7024964,2
337,POINT (-87.62714768792199 41.69626234793678),610208,LAVIZZO,138 W 109TH ST,ES,41.69626235,-87.62714769,49
338,POINT (-87.66794916954753 41.859504008311255),400081,ACERO - DE LAS CASAS,1641 W 16TH ST,ES,41.85950401,-87.66794917,31
339,POINT (-87.76119046881557 41.93040331628871),610165,SCHUBERT,2727 N LONG AVE,ES,41.93040332,-87.76119047,19
340,POINT (-87.71563237169228 41.9589887978418),609988,HENRY,4250 N SAINT LOUIS AVE,ES,41.9589888,-87.71563237,16
341,POINT (-87.68893676244515 41.896712688971974),609854,CHOPIN,2450 W RICE ST,ES,41.89671269,-87.68893676,24
342,POINT (-87.68444182735206 42.01014998457512),609779,ARMSTRONG G,2110 W GREENLEAF AVE,ES,42.01014998,-87.68444183,2
343,POINT (-87.67580971870045 41.93924749728656),610010,JAHN,3149 N WOLCOTT AVE,ES,41.9392475,-87.67580972,5
344,POINT (-87.6067910351881 41.76067263581724),610279,TANNER,7350 S EVANS AVE,ES,41.76067264,-87.60679104,69
345,POINT (-87.69600602219906 41.902849698067456),400131,YCCS - CAMPOS,2739 W DIVISION ST,HS,41.9028497,-87.69600602,24
346,POINT (-87.71801374322332 41.78052638742253),609741,HUBBARD HS,6200 S HAMLIN AVE,HS,41.78052639,-87.71801374,65
347,POINT (-87.81377123402885 41.99423795046112),610523,EDISON PARK,6220 N OLCOTT AVE,ES,41.99423795,-87.81377123,10
348,POINT (-87.73938835102535 41.93251058360826),609789,BARRY,2828 N KILBOURN AVE,ES,41.93251058,-87.73938835,20
349,POINT (-87.71683185522139 41.95007775391796),610089,MURPHY,3539 W GRACE ST,ES,41.95007775,-87.71683186,16
350,POINT (-87.59062038514651 41.656289952193475),609760,CARVER MILITARY HS,13100 S DOTY AVE,HS,41.65628995,-87.59062039,54
351,POINT (-87.64557693592369 41.9068787954093),400170,NOBLE - ACADEMY HS,1443 N OGDEN AVE,HS,41.9068788,-87.64557694,8
352,POINT (-87.76560565853235 41.89766257243135),609830,BRUNSON,932 N CENTRAL AVE,ES,41.89766257,-87.76560566,25
353,POINT (-87.76658937770821 41.88552958057412),609904,ELLINGTON,243 N PARKSIDE AVE,ES,41.88552958,-87.76658938,25
354,POINT (-87.5728059549734 41.76860231267836),610103,OKEEFFE,6940 S MERRILL AVE,ES,41.76860231,-87.57280595,43
355,POINT (-87.70685988381366 41.90157240748982),400126,YCCS - ASSOCIATION HOUSE,1116 N KEDZIE AVE,HS,41.90157241,-87.70685988,23
356,POINT (-87.6398265134838 41.90824688238974),610048,MANIERRE,1420 N HUDSON AVE,ES,41.90824688,-87.63982651,8
357,POINT (-87.60647384690459 41.6574049703926),609848,ALDRIDGE,630 E 131ST ST,ES,41.65740497,-87.60647385,54
358,POINT (-87.665093271982 41.90888612837884),610029,LOZANO,1501 N GREENVIEW AVE,ES,41.90888613,-87.66509327,24
359,POINT (-87.67092241918911 41.96074569259219),610141,RAVENSWOOD,4332 N PAULINA ST,ES,41.96074569,-87.67092242,6
360,POINT (-87.78783043795282 41.917951679822686),400120,ACERO - CLEMENTE,2050 N NATCHEZ AVE,ES,41.91795168,-87.78783044,19
361,POINT (-87.68304994191043 41.90681580989146),610342,SABIN,2216 W HIRSCH ST,ES,41.90681581,-87.68304994,24
362,POINT (-87.67024265730421 41.79404286449545),400024,CICS - BASIL,1816 W GARFIELD BLVD,ES,41.79404286,-87.67024266,61
363,POINT (-87.6777625168446 42.017087591807844),609865,JORDAN,7414 N WOLCOTT AVE,ES,42.01708759,-87.67776252,1
364,POINT (-87.6856678426575 41.84921490597004),609967,FINKL,2332 S WESTERN AVE,ES,41.84921491,-87.68566784,31
365,POINT (-87.65820483630587 41.765075896509245),610223,WENTWORTH,1340 W 71ST ST,ES,41.7650759,-87.65820484,67
366,POINT (-87.62853090073666 41.855999105219354),400064,PERSPECTIVES - JOSLIN HS,1930 S ARCHER AVE,HS,41.85599911,-87.6285309,33
367,POINT (-87.68794642783529 41.90284075724158),610594,PATHWAYS - HUMBOLDT PARK HS,2421 W DIVISION ST,HS,41.90284076,-87.68794643,24
368,POINT (-87.66585003699531 41.98345579233339),610122,PEIRCE,1423 W BRYN MAWR AVE,ES,41.98345579,-87.66585004,77
369,POINT (-87.65372653786373 41.69196931444993),400147,CAMELOT - EXCEL HS,1257 W 111TH ST,HS,41.69196931,-87.65372654,75
370,POINT (-87.57635263778303 41.75879166335072),610547,SOUTH SHORE INTL HS,1955 E 75TH ST,HS,41.75879166,-87.57635264,43
371,POINT (-87.64334423561355 41.81330372972011),609947,GRAHAM ES,4436 S UNION AVE,ES,41.81330373,-87.64334424,61
372,POINT (-87.76184047442766 41.99943683361062),609901,EDGEBROOK,6525 N HIAWATHA AVE,ES,41.99943683,-87.76184047,12
373,POINT (-87.67068239047407 41.88299678494884),609812,BROWN W,54 N HERMITAGE AVE,ES,41.88299678,-87.67068239,28
374,POINT (-87.6775418500361 41.82777491358402),610504,THOMAS,3625 S HOYNE AVE,ES,41.82777491,-87.67754185,59
375,POINT (-87.78197453752605 41.958868036399984),610179,SMYSER,4310 N MELVINA AVE,ES,41.95886804,-87.78197454,15
376,POINT (-87.64110257531908 41.829992863516026),610062,MCCLELLAN,3527 S WALLACE ST,ES,41.82999286,-87.64110258,60
377,POINT (-87.7305663846437 41.88410224207402),610202,TILTON,223 N KEELER AVE,ES,41.88410224,-87.73056638,26
378,POINT (-87.64641313678547 41.92984985280904),609774,ALCOTT ES,2625 N ORCHARD ST,ES,41.92984985,-87.64641314,7
379,POINT (-87.65363344706351 41.74245162733184),610003,CUFFE,8324 S RACINE AVE,ES,41.74245163,-87.65363345,71
380,POINT (-87.75454995057399 41.90682605025648),610036,LEWIS,1431 N LEAMINGTON AVE,ES,41.90682605,-87.75454995,25
381,POINT (-87.68696021818225 41.87911823188259),610304,PHOENIX MILITARY HS,145 S CAMPBELL AVE,HS,41.87911823,-87.68696022,28
382,POINT (-87.60117440803562 41.74018379104356),610268,ASHE,8505 S INGLESIDE AVE,ES,41.74018379,-87.60117441,44
383,POINT (-87.69323838454852 41.81310944519376),400153,ACERO - BRIGHTON PARK,4420 S FAIRFIELD AVE,ES,41.81310945,-87.69323838,58
384,POINT (-87.76578057130266 41.92131758250094),610533,PRIETO,2231 N CENTRAL AVE,ES,41.92131758,-87.76578057,19
385,POINT (-87.73431332380251 41.84139380418136),609973,ZAPATA,2728 S KOSTNER AVE,ES,41.8413938,-87.73431332,30
386,POINT (-87.70644464861839 41.7644070759518),610396,TARKINGTON,3330 W 71ST ST,ES,41.76440708,-87.70644465,66
387,POINT (-87.6689526895783 41.95476406804103),609719,LAKE VIEW HS,4015 N ASHLAND AVE,HS,41.95476407,-87.66895269,6
388,POINT (-87.61614052358688 41.796759564523725),609819,BURKE,5356 S KING DR,ES,41.79675956,-87.61614052,40
389,POINT (-87.68330134658414 41.87694744398223),610561,CRANE MEDICAL HS,2245 W JACKSON BLVD,HS,41.87694744,-87.68330135,28
390,POINT (-87.59933993995391 41.80969549635739),400137,LITTLE BLACK PEARL HS,1060 E 47TH ST,HS,41.8096955,-87.59933994,39
391,POINT (-87.6847927859336 41.995359051781186),610191,STONE,6239 N LEAVITT ST,ES,41.99535905,-87.68479279,2
392,POINT (-87.65301778634654 41.76536056649218),610238,BOND,7050 S MAY ST,ES,41.76536057,-87.65301779,68
393,POINT (-87.5455798928106 41.733333133628754),400107,LEARN - SOUTH CHICAGO,8914 S BUFFALO AVE,ES,41.73333313,-87.54557989,46
394,POINT (-87.69835995431193 41.992541360341484),609859,CLINTON,6110 N FAIRFIELD AVE,ES,41.99254136,-87.69835995,2
395,POINT (-87.65798012768782 41.856028723298124),609872,PEREZ,1241 W 19TH ST,ES,41.85602872,-87.65798013,31
396,POINT (-87.80668177210937 42.01717123978811),610569,OMBUDSMAN - NORTHWEST HS,7500 N HARLEM AVE,HS,42.01717124,-87.80668177,9
397,POINT (-87.71338625327853 41.973185048905286),609737,VON STEUBEN HS,5039 N KIMBALL AVE,HS,41.97318505,-87.71338625,13
398,POINT (-87.6173904556927 41.710434949222304),609800,BENNETT,10115 S PRAIRIE AVE,ES,41.71043495,-87.61739046,49
399,POINT (-87.74112862663205 41.93898842845496),400162,INTRINSIC HS,4540 W BELMONT AVE,HS,41.93898843,-87.74112863,16
400,POINT (-87.74572605686264 41.80817500004231),609981,HEARST,4640 S LAMON AVE,ES,41.808175,-87.74572606,56
401,POINT (-87.70500578053792 41.797498203127596),610157,SAWYER,5248 S SAWYER AVE,ES,41.7974982,-87.70500578,63
402,POINT (-87.67220640215814 41.80234286831759),610239,DALEY,5024 S WOLCOTT AVE,ES,41.80234287,-87.6722064,61
403,POINT (-87.63757205079293 41.689950725323996),609705,FENGER HS,11220 S WALLACE ST,HS,41.68995073,-87.63757205,49
404,POINT (-87.64133980575546 41.84440015891535),610081,SHERIDAN,533 W 27TH ST,ES,41.84440016,-87.64133981,60
405,POINT (-87.71820414376175 41.93572646709451),400172,ASPIRA - BUSINESS & FINANCE HS,2989 N. MILWAUKEE AVE,HS,41.93572647,-87.71820414,21
406,POINT (-87.74933062513716 41.93578457379596),609910,FALCONER,3020 N LAMON AVE,ES,41.93578457,-87.74933063,19
407,POINT (-87.76898261875856 41.94301889601994),610145,REINBERG,3425 N MAJOR AVE,ES,41.9430189,-87.76898262,15
408,POINT (-87.71792663519547 41.90379211793488),609835,CAMERON,1234 N MONTICELLO AVE,ES,41.90379212,-87.71792664,23
409,POINT (-87.71136992132556 41.793479330048626),610532,HERNANDEZ,3510 W 55TH ST,ES,41.79347933,-87.71136992,63
410,POINT (-87.68318458635757 41.89208216607998),610073,MITCHELL,2233 W OHIO ST,ES,41.89208217,-87.68318459,24
411,POINT (-87.59750293094844 41.81117346246991),609951,ARIEL,1119 E 46TH ST,ES,41.81117346,-87.59750293,39
412,POINT (-87.60172726635132 41.75374795595449),609712,HIRSCH HS,7740 S INGLESIDE AVE,HS,41.75374796,-87.60172727,69
413,POINT (-87.67521045891124 41.857754809857546),610329,OROZCO,1940 W 18TH ST,ES,41.85775481,-87.67521046,31
414,POINT (-87.6928996958229 41.92283100742748),609942,GOETHE,2236 N ROCKWELL ST,ES,41.92283101,-87.6928997,22
415,POINT (-87.69601207512642 41.742516626560295),609839,CARROLL,2929 W 83RD ST,ES,41.74251663,-87.69601208,70
416,POINT (-87.7218246651986 41.96640566801435),400017,ASPIRA - HAUGAN,3729 W LELAND AVE,ES,41.96640567,-87.72182467,14
417,POINT (-87.67554666011671 41.781225173325026),609897,EARLE,2040 W 62ND ST,ES,41.78122517,-87.67554666,67
418,POINT (-87.57535254879305 41.72676290909313),610218,WARREN,9239 S JEFFERY AVE,ES,41.72676291,-87.57535255,48
419,POINT (-87.61833765366826 41.83652695393429),610126,PERSHING,3200 S CALUMET AVE,ES,41.83652695,-87.61833765,35
420,POINT (-87.73266645520346 41.786895377446534),610117,PASTEUR,5825 S KOSTNER AVE,ES,41.78689538,-87.73266646,62
421,POINT (-87.68089678721273 41.69302600642279),609861,CLISSOLD,2350 W 110TH PL,ES,41.69302601,-87.68089679,75
422,POINT (-87.72713735988862 41.93818660325618),400125,YCCS - ASPIRA PANTOJA,3121 N PULASKI RD,HS,41.9381866,-87.72713736,21
423,POINT (-87.7177696726804 41.691220742563665),609753,CHICAGO AGRICULTURE HS,3857 W 111TH ST,HS,41.69122074,-87.71776967,74
424,POINT (-87.70068059995432 41.86414584319289),400059,NLCP - COLLINS HS,1313 S SACRAMENTO DR,HS,41.86414584,-87.7006806,29
425,POINT (-87.5939049415999 41.80429401663082),610175,SHOESMITH,1330 E 50TH ST,ES,41.80429402,-87.59390494,39
426,POINT (-87.53297076749375 41.71547037612647),610198,TAYLOR,9912 S AVENUE H,ES,41.71547038,-87.53297077,52
427,POINT (-87.61977966040409 41.827355266814315),610110,WELLS ES,249 E 37TH ST,ES,41.82735527,-87.61977966,35
428,POINT (-87.72665959049039 41.89454671958924),610389,ORR HS,730 N PULASKI RD,HS,41.89454672,-87.72665959,23
429,POINT (-87.59042088944337 41.80377211930721),609746,KENWOOD HS,5015 S BLACKSTONE AVE,HS,41.80377212,-87.59042089,39
430,POINT (-87.71574357178713 41.858883446948504),610254,DVORAK,3615 W 16TH ST,ES,41.85888345,-87.71574357,29
431,POINT (-87.64699403793747 41.68103137030478),610295,HIGGINS,11710 S MORGAN ST,ES,41.68103137,-87.64699404,53
432,POINT (-87.71021700195347 41.90651959146119),610044,LOWELL,3320 W HIRSCH ST,ES,41.90651959,-87.710217,23
433,POINT (-87.70020216025388 41.821851614576545),609876,DAVIS N,3014 W 39TH PL,ES,41.82185161,-87.70020216,58
434,POINT (-87.64281614884685 41.695105264286916),610593,OMBUDSMAN - ROSELAND HS,10928 S HALSTED ST,HS,41.69510526,-87.64281615,75
435,POINT (-87.62174596835754 41.771620359866894),609813,BROWNELL,6741 S MICHIGAN AVE,ES,41.77162036,-87.62174597,69
436,POINT (-87.67682117256561 41.71144507127064),610195,SUTHERLAND,10015 S LEAVITT ST,ES,41.71144507,-87.67682117,72
437,POINT (-87.7596751723313 41.91726640948676),400169,NOBLE - ITW SPEER HS,5321 W GRAND AVE,HS,41.91726641,-87.75967517,19
438,POINT (-87.66496913282975 41.8685758793959),610548,STEM,1522 W FILLMORE ST,ES,41.86857588,-87.66496913,28
439,POINT (-87.62930832982723 41.852799770339956),610231,NATIONAL TEACHERS,55 W CERMAK RD,ES,41.85279977,-87.62930833,33
440,POINT (-87.64979535547374 41.793787649438364),609997,HOLMES,955 W GARFIELD BLVD,ES,41.79378765,-87.64979536,68
441,POINT (-87.7352375558781 41.91167369288696),609691,NORTH-GRAND HS,4338 W WABANSIA AVE,HS,41.91167369,-87.73523756,23
442,POINT (-87.69731553741045 41.847940716302794),610017,SAUCEDO,2850 W 24TH BLVD,ES,41.84794072,-87.69731554,30
443,POINT (-87.74927555445296 41.87358678099432),610305,LELAND,512 S LAVERGNE AVE,ES,41.87358678,-87.74927555,25
444,POINT (-87.66603693424409 41.80714283144552),610148,CHAVEZ,4747 S MARSHFIELD AVE,ES,41.80714283,-87.66603693,61
445,POINT (-87.75756503917472 41.972393945500855),609796,BEAUBIEN,5025 N LARAMIE AVE,ES,41.97239395,-87.75756504,11
446,POINT (-87.66565754521265 41.69203500966705),609725,MORGAN PARK HS,1744 W PRYOR AVE,HS,41.69203501,-87.66565755,75
447,POINT (-87.73045044341188 41.80819980685667),400080,ACERO - TORRES,4248 W 47TH ST,ES,41.80819981,-87.73045044,57
448,POINT (-87.62569157850257 41.798464960073275),610246,BEASLEY,5255 S STATE ST,ES,41.79846496,-87.62569158,40
449,POINT (-87.65053854187906 41.67230940677972),610315,WHITE,1136 W 122ND ST,ES,41.67230941,-87.65053854,53
450,POINT (-87.76629755454928 41.87797883365061),610367,DEPRIEST,139 S PARKSIDE AVE,ES,41.87797883,-87.76629755,25
451,POINT (-87.68724015881875 41.84596658850674),400104,INSTITUTO - HEALTH,2520 S WESTERN AVE,HS,41.84596659,-87.68724016,31
452,POINT (-87.72661479995716 41.893805037570665),400180,KIPP - ONE,730 N PULASKI RD,ES,41.89380504,-87.7266148,23
453,POINT (-87.79623511406567 41.97635166409282),609937,GARVY,5225 N OAK PARK AVE,ES,41.97635166,-87.79623511,10
454,POINT (-87.67481841837021 42.01303148982041),400035,CHICAGO MATH & SCIENCE HS,7212 N CLARK ST,HS,42.01303149,-87.67481842,1
455,POINT (-87.60863289646443 41.78518281665164),609919,FISKE,6020 S LANGLEY AVE,ES,41.78518282,-87.6086329,42
456,POINT (-87.66713618981206 41.98902853931401),609730,SENN HS,5900 N GLENWOOD AVE,HS,41.98902854,-87.66713619,77
457,POINT (-87.73142009080482 41.91958145296649),610097,NIXON,2121 N KEELER AVE,ES,41.91958145,-87.73142009,20
458,POINT (-87.74881028902196 41.90224003228395),400144,YCCS - WESTSIDE HOLISTIC,4909 W DIVISION ST,HS,41.90224003,-87.74881029,25
459,POINT (-87.5943919955956 41.77336553232888),609977,WOODLAWN,6657 S KIMBARK AVE,ES,41.77336553,-87.594392,42
460,POINT (-87.7479358782032 41.891809751014755),610092,NASH,4837 W ERIE ST,ES,41.89180975,-87.74793588,25
461,POINT (-87.79935927031795 41.7738988160931),609893,DORE,7134 W 65TH ST,ES,41.77389882,-87.79935927,64
462,POINT (-87.75880329371451 41.77546426147371),609956,GRIMES,5450 W 64TH PL,ES,41.77546426,-87.75880329,64
463,POINT (-87.69959365143866 41.937475775933436),400082,ACERO - FUENTES,2845 W BARRY AVE,ES,41.93747578,-87.69959365,21
464,POINT (-87.6657210555144 41.74312177077341),400111,LEARN - PERKINS,1700 W 83RD ST,ES,41.74312177,-87.66572106,71
465,POINT (-87.66496784466547 41.95078051888631),609803,BLAINE,1420 W GRACE ST,ES,41.95078052,-87.66496784,6
466,POINT (-87.62531481526548 41.84967541789271),609769,GRAHAM HS,2347 S WABASH AVE,HS,41.84967542,-87.62531482,33
467,POINT (-87.72174231677369 41.91604463388632),609780,MARINE LEADERSHIP AT AMES HS,1920 N HAMLIN AVE,HS,41.91604463,-87.72174232,22
468,POINT (-87.67332725897175 41.80711213223905),609983,HEDGES,4747 S WINCHESTER AVE,ES,41.80711213,-87.67332726,61
469,POINT (-87.68329074267808 41.85290039518056),610129,PICKARD,2301 W 21ST PL,ES,41.8529004,-87.68329074,31
470,POINT (-87.65576813291764 41.72122143298515),400033,CICS - LONGWOOD,1309 W 95TH ST,HS,41.72122143,-87.65576813,73
471,POINT (-87.73529946931342 41.833507275209264),610383,SOCIAL JUSTICE HS,3120 S KOSTNER AVE,HS,41.83350728,-87.73529947,30
472,POINT (-87.70263467429587 41.940009280332085),610039,VON LINNE,3221 N SACRAMENTO AVE,ES,41.94000928,-87.70263467,21
473,POINT (-87.70506426006517 41.84095691154771),610215,MADERO,3202 W 28TH ST,ES,41.84095691,-87.70506426,30
474,POINT (-87.79872070511095 41.91415063009094),610158,SAYRE,1850 N NEWLAND AVE,ES,41.91415063,-87.79872071,25
475,POINT (-87.67948421494016 41.97506725668829),609695,AMUNDSEN HS,5110 N DAMEN AVE,HS,41.97506726,-87.67948421,4
476,POINT (-87.67218159329356 41.80977029709563),609993,LARA,4619 S WOLCOTT AVE,ES,41.8097703,-87.67218159,61
477,POINT (-87.65022144565326 41.79976620613379),610172,SHERMAN,1000 W 52ND ST,ES,41.79976621,-87.65022145,61
478,POINT (-87.63930546894748 41.71566535832625),610362,EVERS,9811 S LOWE AVE,ES,41.71566536,-87.63930547,73
479,POINT (-87.71601740733611 41.84848777069009),610024,CARDENAS,2345 S MILLARD AVE,ES,41.84848777,-87.71601741,30
480,POINT (-87.72542159519003 41.78382632211147),610588,RICHARDSON,6018 S KARLOV AVE,ES,41.78382632,-87.7254216,65
481,POINT (-87.7096096820418 41.742350567067255),610287,ASHBURN,8300 S ST LOUIS AVE,ES,41.74235057,-87.70960968,70
482,POINT (-87.66085886980439 41.89242501281074),400055,NOBLE - RAUNER HS,1337 W OHIO ST,HS,41.89242501,-87.66085887,24
483,POINT (-87.62834918762451 41.859740681236836),609990,SOUTH LOOP,1601 S DEARBORN ST,ES,41.85974068,-87.62834919,33
484,POINT (-87.70591720533335 42.002958994988134),610542,WEST RIDGE,6700 N WHIPPLE ST,ES,42.00295899,-87.70591721,2
485,POINT (-87.6429664835397 41.80751007176613),609735,TILDEN HS,4747 S UNION AVE,HS,41.80751007,-87.64296648,61
486,POINT (-87.63275698311773 41.82814532285343),610513,AIR FORCE HS,3630 S WELLS ST,HS,41.82814532,-87.63275698,34
487,POINT (-87.61688838172707 41.68443303870889),400028,CICS - PRAIRIE,11530 S PRAIRIE AVE,ES,41.68443304,-87.61688838,53
488,POINT (-87.66763900841302 41.7673901131907),400116,MONTESSORI ENGLEWOOD,6936 S HERMITAGE AVE,ES,41.76739011,-87.66763901,67
489,POINT (-87.66433930957471 41.85267013653239),609764,JUAREZ HS,1450 W CERMAK RD,HS,41.85267014,-87.66433931,31
490,POINT (-87.66098467184615 41.8742996386608),610060,JACKSON A,1340 W HARRISON ST,ES,41.87429964,-87.66098467,28
491,POINT (-87.55186171885538 41.74375308333441),609961,NINOS HEROES,8344 S COMMERCIAL AVE,ES,41.74375308,-87.55186172,46
492,POINT (-87.76100700350287 41.95698763741213),610135,PORTAGE PARK,5330 W BERTEAU AVE,ES,41.95698764,-87.761007,15
493,POINT (-87.7299552923998 41.73884394135667),610352,DURKIN PARK,8445 S KOLIN AVE,ES,41.73884394,-87.72995529,70
494,POINT (-87.69076139188921 41.94138764056509),610402,DEVRY HS,1900 W LAWRENCE AVE,HS,41.96908084,-87.67690759,4
495,POINT (-87.72478312355048 41.94002591405478),610541,LORCA,3231 N SPRINGFIELD AVE,ES,41.94002591,-87.72478312,21
496,POINT (-87.70805006976924 41.87844408594291),609723,MARSHALL HS,3250 W ADAMS ST,HS,41.87844409,-87.70805007,27
497,POINT (-87.66555862133832 41.72081703449543),610207,VANDERPOEL,9510 S PROSPECT AVE,ES,41.72081703,-87.66555862,72
498,POINT (-87.66399582958883 41.775367367670526),400071,PROVIDENCE ENGLEWOOD,6515 S ASHLAND AVE,ES,41.77536737,-87.66399583,67
499,POINT (-87.68567659787568 41.68819083818881),609871,VICK,2554 W 113TH ST,ES,41.68819084,-87.6856766,75
500,POINT (-87.81419465453426 42.01689164143097),610163,STOCK,7507 W BIRCHWOOD AVE,ES,42.01689164,-87.81419465,9
501,POINT (-87.70321548827793 41.687347055369614),609849,CASSELL,11314 S SPAULDING AVE,ES,41.68734706,-87.70321549,74
502,POINT (-87.68363453081969 41.783026581393415),610570,OMBUDSMAN - SOUTH HS,6057 S. WESTERN AVE,HS,41.78302658,-87.68363453,66
503,POINT (-87.60943096742844 41.68881935296746),610139,PULLMAN,11311 S FORRESTVILLE AVE,ES,41.68881935,-87.60943097,50
504,POINT (-87.68406493864751 41.84544601584804),400164,INSTITUTO - LOZANO HS,2570 S BLUE ISLAND AVE,HS,41.84544602,-87.68406494,31
505,POINT (-87.60248144780245 41.798001878355684),610030,KOZMINSKI,936 E 54TH ST,ES,41.79800188,-87.60248145,41
506,POINT (-87.68575620384061 41.905293853976055),610313,DE DIEGO,1313 N CLAREMONT AVE,ES,41.90529385,-87.6857562,24
507,POINT (-87.61661794406352 41.81435828347576),610276,MOLLISON,4415 S DR MARTIN L KING JR DR,ES,41.81435828,-87.61661794,38
508,POINT (-87.62773414584957 41.8830471723943),400133,YCCS - INNOVATIONS,17 N. STATE ST.,HS,41.88304717,-87.62773415,32
509,POINT (-87.6399736042198 41.69649616370618),610188,DUNNE,10845 S UNION AVE,ES,41.69649616,-87.6399736,49
510,POINT (-87.7087312844705 41.753457193441676),609807,HAMPTON,3434 W 77TH ST,ES,41.75345719,-87.70873128,70
511,POINT (-87.76766845555305 41.89036862981543),610245,DOUGLASS HS,543 N WALLER AVE,HS,41.89036863,-87.76766846,25
512,POINT (-87.62986865963941 41.705342321933195),610368,HUGHES L,240 W 104TH ST,ES,41.70534232,-87.62986866,49
513,POINT (-87.70817918402533 41.787523230052464),610203,TONTI,5815 S HOMAN AVE,ES,41.78752323,-87.70817918,63
514,POINT (-87.69245662922022 41.82886790732714),609829,BURROUGHS,3542 S WASHTENAW AVE,ES,41.82886791,-87.69245663,58
515,POINT (-87.60257331720778 41.706666859095016),400156,NOBLE - BUTLER HS,821 E 103RD ST,HS,41.70666686,-87.60257332,50
516,POINT (-87.65993281794726 41.79768483257736),610037,LIBBY,5300 S LOOMIS BLVD,ES,41.79768483,-87.65993282,61
517,POINT (-87.66737776498864 41.80351471627292),610386,PEACE AND EDUCATION HS,4946 S PAULINA ST,HS,41.80351472,-87.66737776,61
518,POINT (-87.70028031259817 41.91503854790585),610234,YATES,1839 N RICHMOND ST,ES,41.91503855,-87.70028031,22
519,POINT (-87.72393113203229 41.91481634183527),609968,MCAULIFFE,1841 N SPRINGFIELD AVE,ES,41.91481634,-87.72393113,20
520,POINT (-87.62478771975206 41.82778385747586),400066,PERSPECTIVES - MATH & SCI HS,3663 S WABASH AVE,HS,41.82778386,-87.62478772,35
521,POINT (-87.75711559858576 41.948763579565934),609949,GRAY,3730 N LARAMIE AVE,ES,41.94876358,-87.7571156,15
522,POINT (-87.66772404347273 41.825699760024946),400050,NAMASTE,3737 S PAULINA ST,ES,41.82569976,-87.66772404,59
523,POINT (-87.62334458925658 41.76249026426022),609883,DENEEN,7240 S WABASH AVE,ES,41.76249026,-87.62334459,69
524,POINT (-87.66748286895526 41.898994707797996),609740,WELLS HS,936 N ASHLAND AVE,HS,41.89899471,-87.66748287,24
525,POINT (-87.70052941983774 41.984640776743795),610011,JAMIESON,5650 N MOZART ST,ES,41.98464078,-87.70052942,2
526,POINT (-87.61921444365747 41.7345499083735),610066,MCDADE,8801 S INDIANA AVE,ES,41.73454991,-87.61921444,44
527,POINT (-87.65807422405454 41.70513101208921),609788,BARNARD,10354 S CHARLES ST,ES,41.70513101,-87.65807422,72
528,POINT (-87.69739409699162 41.80830882462762),400089,ACERO - MARQUEZ,2916 W 47TH ST,ES,41.80830882,-87.6973941,58
529,POINT (-87.70264475133739 41.80822578590752),400173,PATHWAYS - BRIGHTON PARK HS,3124 W. 47TH STREET,HS,41.80822579,-87.70264475,58
530,POINT (-87.70018447218848 41.84774672275192),610184,SPRY ES,2400 S MARSHALL BLVD,ES,41.84774672,-87.70018447,30
531,POINT (-87.78963033156606 41.9701248831647),610083,BEARD,6445 W STRONG ST,ES,41.97012488,-87.78963033,10
532,POINT (-87.68690614584494 41.90262579239755),609759,CLEMENTE HS,1147 N WESTERN AVE,HS,41.90262579,-87.68690615,24
533,POINT (-87.7808397551018 41.789961252949645),609718,KENNEDY HS,6325 W 56TH ST,HS,41.78996125,-87.78083976,56
534,POINT (-87.64546949689041 41.75467006288245),610102,OGLESBY,7646 S GREEN ST,ES,41.75467006,-87.6454695,71
535,POINT (-87.6987387197961 41.87786063190466),400047,LEARN - CAMPBELL,212 S FRANCISCO AVE,ES,41.87786063,-87.69873872,27
536,POINT (-87.68135796493904 41.92241462993688),400025,CICS - BUCKTOWN,2235 N HAMILTON AVE,ES,41.92241463,-87.68135796,22
537,POINT (-87.73377838309736 41.88173275921462),400119,LEGAL PREP HS,4319 W WASHINGTON BLVD,HS,41.88173276,-87.73377838,26
538,POINT (-87.60841876846963 41.8144987957931),610345,WOODSON,4414 S EVANS AVE,ES,41.8144988,-87.60841877,38
539,POINT (-87.61178404264491 41.81800340373519),609928,FULLER,4214 S ST LAWRENCE AVE,ES,41.8180034,-87.61178404,38
540,POINT (-87.62767532290779 41.873065923638116),609678,JONES HS,700 S STATE ST,HS,41.87306592,-87.62767532,32
541,POINT (-87.55022236949605 41.744849106383384),400094,EPIC HS,8255 S HOUSTON AVE,HS,41.74484911,-87.55022237,46
542,POINT (-87.75792050928045 41.920610971314126),610051,NORTHWEST,5252 W PALMER ST,ES,41.92061097,-87.75792051,19
543,POINT (-87.69456225148969 41.91799265365567),609853,CHASE,2021 N POINT ST,ES,41.91799265,-87.69456225,22
544,POINT (-87.68376530075341 41.955553195526804),609866,COONLEY,4046 N LEAVITT ST,ES,41.9555532,-87.6837653,5
545,POINT (-87.6836156511509 41.87159549239637),610121,IRVING,749 S OAKLEY BLVD,ES,41.87159549,-87.68361565,28
546,POINT (-87.65538382113651 41.6839070104639),610225,WHISTLER,11533 S ADA ST,ES,41.68390701,-87.65538382,53
547,POINT (-87.5620842299845 41.69972622184234),609811,BRIGHT,10740 S CALHOUN AVE,ES,41.69972622,-87.56208423,51
548,POINT (-87.6534450266779 41.865351018922674),610180,SMYTH,1059 W 13TH ST,ES,41.86535102,-87.65344503,28
549,POINT (-87.63430552124309 41.66944402318567),609902,METCALFE,12339 S NORMAL AVE,ES,41.66944402,-87.63430552,53
550,POINT (-87.73167243316921 41.85686370109939),610056,MASON,4217 W 18TH ST,ES,41.8568637,-87.73167243,29
551,POINT (-87.61124445841946 41.70033514164622),610004,CULLEN,10650 S EBERHART AVE,ES,41.70033514,-87.61124446,49
552,POINT (-87.62804036316227 41.7471859182612),610298,LENART,8101 S LASALLE ST,ES,41.74718592,-87.62804036,44
553,POINT (-87.65475844785422 41.97094908292709),610269,MCCUTCHEON,4865 N SHERIDAN RD,ES,41.97094908,-87.65475845,3
554,POINT (-87.76022117561679 41.894976391501466),400127,YCCS - AUSTIN CAREER,5352 W CHICAGO AVE,HS,41.89497639,-87.76022118,25
555,POINT (-87.66985312411366 41.93793747440641),609820,BURLEY,1630 W BARRY AVE,ES,41.93793747,-87.66985312,6
556,POINT (-87.70216290437172 41.870167717960676),609925,KELLMAN,3030 W ARTHINGTON ST,ES,41.87016772,-87.7021629,27
557,POINT (-87.78351523287559 41.935633588075454),609732,STEINMETZ HS,3030 N MOBILE AVE,HS,41.93563359,-87.78351523,19
558,POINT (-87.62254566062494 41.67061754028429),609943,OWENS,12302 S STATE ST,ES,41.67061754,-87.62254566,53
559,POINT (-87.6897797727433 41.806491411656765),610559,SHIELDS MIDDLE,2611 W 48TH ST,ES,41.80649141,-87.68977977,58
560,POINT (-87.66952750426273 41.928841100792745),610136,PRESCOTT,1632 W WRIGHTWOOD AVE,ES,41.9288411,-87.6695275,7
561,POINT (-87.67086537302539 41.94521965500946),609963,HAMILTON,1650 W CORNELIA AVE,ES,41.94521966,-87.67086537,6
562,POINT (-87.71921626106868 41.78789897071231),610120,PECK,3826 W 58TH ST,ES,41.78789897,-87.71921626,62
563,POINT (-87.62093345510802 41.73840659515536),610093,NEIL,8555 S MICHIGAN AVE,ES,41.7384066,-87.62093346,44
564,POINT (-87.67116041930247 41.983371436351945),400060,AHS - PASSAGES,1643 W BRYN MAWR AVE,ES,41.98337144,-87.67116042,77
565,POINT (-87.61921554222704 41.83055497789397),609754,CHICAGO MILITARY HS,3519 S GILES AVE,HS,41.83055498,-87.61921554,35
566,POINT (-87.61227454298165 41.83112062914287),609891,DOOLITTLE,535 E 35TH ST,ES,41.83112063,-87.61227454,35
567,POINT (-87.61635260656355 41.692762529207194),609726,BROOKS HS,250 E 111TH ST,HS,41.69276253,-87.61635261,49
568,POINT (-87.73012671472559 41.91521410714639),400054,NOBLE - PRITZKER HS,4131 W CORTLAND AVE,HS,41.91521411,-87.73012671,20
569,POINT (-87.69255089866297 41.850035413105296),400083,ACERO - PAZ,2651 W 23RD ST,ES,41.85003541,-87.6925509,30
570,POINT (-87.72188814466854 41.92090964989134),610088,MOZART,2200 N HAMLIN AVE,ES,41.92090965,-87.72188814,22
571,POINT (-87.70215096178198 41.95821983970932),609792,BATEMAN,4220 N RICHMOND ST,ES,41.95821984,-87.70215096,16
572,POINT (-87.68104105312955 41.94506222513074),609782,AUDUBON,3500 N HOYNE AVE,ES,41.94506223,-87.68104105,5
573,POINT (-87.69436444521675 41.90677063558899),400039,ERIE,1405 N WASHTENAW AVE,ES,41.90677064,-87.69436445,24
574,POINT (-87.73126059627789 41.9001396562),610106,PICCOLO,1040 N KEELER AVE,ES,41.90013966,-87.7312606,23
575,POINT (-87.72585617789453 41.805541539905185),609903,EDWARDS,4815 S KARLOV AVE,ES,41.80554154,-87.72585618,57
576,POINT (-87.78391884683761 41.91271802714663),610043,LOVETT,6333 W BLOOMINGDALE AVE,ES,41.91271803,-87.78391885,25
577,POINT (-87.66652988324923 41.77122111202158),610521,DAVIS M,6740 S PAULINA ST,ES,41.77122111,-87.66652988,67
578,POINT (-87.71542311990282 41.88621006017526),610334,RABY HS,3545 W FULTON BLVD,HS,41.88621006,-87.71542312,27
579,POINT (-87.7171903201515 41.83879052013036),609950,ORTIZ DE DOMINGUEZ,3000 S LAWNDALE AVE,ES,41.83879052,-87.71719032,30
580,POINT (-87.57607485711411 41.76084748073773),609815,BOUCHET,7355 S JEFFERY BLVD,ES,41.76084748,-87.57607486,43
581,POINT (-87.66850377465958 41.99454088652872),609976,HAYT,1518 W GRANVILLE AVE,ES,41.99454089,-87.66850377,77
582,POINT (-87.61796787062902 41.67931844325128),400161,CHICAGO COLLEGIATE,11816 S INDIANA AVE,HS,41.67931844,-87.61796787,53
583,POINT (-87.70644252545561 41.95204212165319),609857,CLEVELAND,3121 W BYRON ST,ES,41.95204212,-87.70644253,16
584,POINT (-87.5659697718123 41.741412807205215),609862,COLES,8441 S YATES BLVD,ES,41.74141281,-87.56596977,46
585,POINT (-87.7653219783212 41.88232222169864),400021,CATALYST - CIRCLE ROCK,5608 W WASHINGTON BLVD,ES,41.88232222,-87.76532198,25
586,POINT (-87.53517530584459 41.706800999624136),609935,GALLISTEL,10347 S EWING AVE,ES,41.706801,-87.53517531,52
587,POINT (-87.72447046436722 41.79146390934622),609694,HANCOCK HS,4034 W 56TH ST,HS,41.79146391,-87.72447046,62
588,POINT (-87.58661500993882 41.78225692748787),609713,HYDE PARK HS,6220 S STONY ISLAND AVE,HS,41.78225693,-87.58661501,42
589,POINT (-87.65379166830594 41.838027387837464),609996,HOLDEN,1104 W 31ST ST,ES,41.83802739,-87.65379167,60
590,POINT (-87.53601529918677 41.688131484164664),610219,WASHINGTON G ES,3611 E 114TH ST,ES,41.68813148,-87.5360153,52
591,POINT (-87.7079526334741 41.774420452387766),609898,EBERHART,3400 W 65TH PL,ES,41.77442045,-87.70795263,66
592,POINT (-87.66822246663597 42.00364046331735),610022,KILMER,6700 N GREENVIEW AVE,ES,42.00364046,-87.66822247,1
593,POINT (-87.62533077010683 41.84133116785046),400124,YCCS - MCKINLEY,2920 S WABASH AVE,HS,41.84133117,-87.62533077,35
594,POINT (-87.70585481199947 41.885321040289625),609797,BEIDLER,3151 W WALNUT ST,ES,41.88532104,-87.70585481,27
595,POINT (-87.68074453481923 41.848100940023286),610125,RUIZ,2410 S LEAVITT ST,ES,41.84810094,-87.68074453,31
596,POINT (-87.65866905202182 41.69091887705336),610176,SHOOP,11140 S BISHOP ST,ES,41.69091888,-87.65866905,75
597,POINT (-87.70580994472152 41.695733862327714),610082,MOUNT GREENWOOD,10841 S HOMAN AVE,ES,41.69573386,-87.70580994,74
598,POINT (-87.55180355199913 41.753114901720906),610573,CAMELOT - SAFE HS,7530 S SOUTH SHORE DR,HS,41.7531149,-87.55180355,43
599,POINT (-87.59906677097469 41.81734932753818),610256,ROBINSON,4225 S LAKE PARK AVE,ES,41.81734933,-87.59906677,36
600,POINT (-87.70205280025763 41.89080312177555),400143,YCCS - WEST TOWN,500 N SACRAMENTO BLVD,HS,41.89080312,-87.7020528,23
601,POINT (-87.7051120770973 41.85077148440774),609920,KANOON,2233 S KEDZIE AVE,ES,41.85077148,-87.70511208,30
602,POINT (-87.72995463177078 41.90615515316756),610098,NOBEL,4127 W HIRSCH ST,ES,41.90615515,-87.72995463,23
603,POINT (-87.71922375095447 41.92998860385815),610074,MONROE,3651 W SCHUBERT AVE,ES,41.9299886,-87.71922375,22
604,POINT (-87.64912434694986 41.76389597409202),610565,CAMELOT - EXCEL ENGLEWOOD HS,7141 S MORGAN ST,HS,41.76389597,-87.64912435,68
605,POINT (-87.73217877767884 41.94167760398012),610159,SCAMMON,4201 W HENDERSON ST,ES,41.9416776,-87.73217878,16
606,POINT (-87.73580189344491 41.87866464768432),609985,HEFFERAN,4409 W WILCOX ST,ES,41.87866465,-87.73580189,26
607,POINT (-87.69894610650123 41.847761694940964),610357,SPRY HS,2400 S MARSHALL BLVD,HS,41.84776169,-87.69894611,30
608,POINT (-87.73921294544134 41.97328939323462),610111,PALMER,5051 N KENNETH AVE,ES,41.97328939,-87.73921295,14
609,POINT (-87.67763611228636 41.88321451740222),610405,SUDER,2022 W WASHINGTON BLVD,ES,41.88321452,-87.67763611,28
610,POINT (-87.63363243382835 41.90141653446823),610250,SALAZAR,160 W WENDELL ST,ES,41.90141653,-87.63363243,8
611,POINT (-87.7263796282118 41.78959705388647),610589,SOR JUANA,4120 W 57TH ST,ES,41.78959705,-87.72637963,62
612,POINT (-87.6180664473823 41.75194557604157),610152,RUGGLES,7831 S PRAIRIE AVE,ES,41.75194558,-87.61806645,69
613,POINT (-87.7541665438981 41.939796768111655),609708,FOREMAN HS,3235 N LECLAIRE AVE,HS,41.93979677,-87.75416654,15
614,POINT (-87.73049511743928 41.81013478732238),400079,ACERO - ZIZUMBO,4248 W 47TH ST,ES,41.81013479,-87.73049512,57
615,POINT (-87.66897963899922 41.74838240836738),400032,CICS - ELLISON HS,1817 W 80TH ST,HS,41.74838241,-87.66897964,71
616,POINT (-87.69526101587266 41.8425333487506),609748,YORK HS,2700 S CALIFORNIA AVE,HS,41.84253335,-87.69526102,30
617,POINT (-87.69746282204999 42.00341160811065),609804,BOONE,6710 N WASHTENAW AVE,ES,42.00341161,-87.69746282,2
618,POINT (-87.70879678420533 41.80104241416243),400112,ACERO - IDAR,5050 S HOMAN AVE,ES,41.80104241,-87.70879678,63
619,POINT (-87.69399616197575 41.822883741274396),400101,ACERO - CISNEROS,2744 W PERSHING RD,ES,41.82288374,-87.69399616,58
620,POINT (-87.53297604180854 41.69873879985222),609772,ADDAMS,10810 S AVENUE H,ES,41.6987388,-87.53297604,52
621,POINT (-87.6813103037164 41.831555161455555),609909,EVERETT,3419 S BELL AVE,ES,41.83155516,-87.6813103,59
622,POINT (-87.60789113705162 41.740340233663105),610130,PIRIE,650 E 85TH ST,ES,41.74034023,-87.60789114,44
623,POINT (-87.60101811277593 41.77347789827783),610213,WADSWORTH,6650 S ELLIS AVE,ES,41.7734779,-87.60101811,42
624,POINT (-87.64449730394378 41.92452481637057),610038,LINCOLN,615 W KEMPER PL,ES,41.92452482,-87.6444973,7
625,POINT (-87.59039610205166 41.76775510951575),610530,SOUTH SHORE ES,1415 E 70TH ST,ES,41.76775511,-87.5903961,43
626,POINT (-87.59233320248323 41.71292210067736),400136,YCCS - OLIVE HARVEY,10001 S WOODLAWN AVE,HS,41.7129221,-87.5923332,50
627,POINT (-87.68396339327379 41.7952009532687),400167,HORIZON - SOUTHWEST,5401 S. WESTERN,ES,41.79520095,-87.68396339,63
628,POINT (-87.70541291384023 41.92332271762463),609875,DARWIN,3116 W BELDEN AVE,ES,41.92332272,-87.70541291,22
629,POINT (-87.68779954321074 41.79327214417021),609842,CARSON,5516 S MAPLEWOOD AVE,ES,41.79327214,-87.68779954,63
630,POINT (-87.72312803497192 41.96402870922747),609972,HAUGAN,4540 N HAMLIN AVE,ES,41.96402871,-87.72312803,14
631,POINT (-87.73352395107558 41.87082837933628),610194,SUMNER,4320 W 5TH AVE,ES,41.87082838,-87.73352395,26
632,POINT (-87.71899385436602 41.8620812969999),609991,HERZL,3711 W DOUGLAS BLVD,ES,41.8620813,-87.71899385,29
633,POINT (-87.66227784586918 41.80288137577379),609682,RICHARDS HS,5009 S LAFLIN ST,HS,41.80288138,-87.66227785,61
634,POINT (-87.55278794438395 41.73171691657432),610171,MIRELES,9000 S EXCHANGE AVE,ES,41.73171692,-87.55278794,46
635,POINT (-87.67723250602555 41.72526344019597),610016,KELLOGG,9241 S LEAVITT ST,ES,41.72526344,-87.67723251,72
636,POINT (-87.72366217142843 41.864943352704344),400128,YCCS - CCA ACADEMY,1231 S PULASKI RD,HS,41.86494335,-87.72366217,29
637,POINT (-87.64502523744304 41.73892015779958),609955,GRESHAM,8524 S GREEN ST,ES,41.73892016,-87.64502524,71
638,POINT (-87.6731683285629 42.00770257088182),610284,NEW FIELD,1707 W MORSE AVE,ES,42.00770257,-87.67316833,1
639,POINT (-87.5671305913564 41.71440206253764),609821,BURNHAM,9928 S CRANDON AVE,ES,41.71440206,-87.56713059,51
640,POINT (-87.66781651174638 41.82935561951145),610319,EVERGREEN,3537 S PAULINA ST,ES,41.82935562,-87.66781651,59
641,POINT (-87.69705747862061 41.80798719304401),400179,NOBLE - MANSUETO HS,2911 W 47TH ST,HS,41.80798719,-87.69705748,58
642,POINT (-87.65811083885113 41.67750544720192),610199,COLEMON,1441 W 119TH ST,ES,41.67750545,-87.65811084,53
643,POINT (-87.7173189526859 41.843698118382875),609834,LITTLE VILLAGE,2620 S LAWNDALE AVE,ES,41.84369812,-87.71731895,30
644,POINT (-87.73529221730041 41.8343966172241),610392,WORLD LANGUAGE HS,3120 S KOSTNER AVE,HS,41.83439662,-87.73529222,30
645,POINT (-87.75892840072247 41.79904639800406),610206,TWAIN,5134 S LOTUS AVE,ES,41.7990464,-87.7589284,56
646,POINT (-87.71954054421472 41.94109399066556),610144,REILLY,3650 W SCHOOL ST,ES,41.94109399,-87.71954054,21
647,POINT (-87.65250013919314 41.719291947815584),610032,GREEN,1150 W 96TH ST,ES,41.71929195,-87.65250014,73
648,POINT (-87.65097986936044 41.95280951201589),609850,GREELEY,832 W SHERIDAN RD,ES,41.95280951,-87.65097987,6
649,POINT (-87.711024984798 41.80176224619052),400149,ACERO - SOTO HS,5025 S SAINT LOUIS AVE,HS,41.80176225,-87.71102498,63
